Id,Name,Country,City,Address,Latitude,Longitude
3,Hampton Inn-st Robert,US,Saint Robert,103 Saint Robert Plaza Dr,37.82382,-92.149721
8589934593,Cascabel,US,Norwood,45045 Sanborn Park Rd,38.158896,-108.241334
25769803776,Best Western Plus Arlington North Hotel and Suites,US,Grand Prairie,2075 N Us State Nighway 360,32.783764,-97.06028
25769803781,Eaglecrest Ski Area,US,Juneau,155 S Seward St,58.299629,-134.405992
34359738370,Sherwood Hills Resort,US,Wellsville,Highway 89 91,41.616549,-111.932986
42949672961,Holiday Inn Express and Suites Canyonville,US,Canyonville,200 Creekside Dr,42.9414,-123.28994
42949672966,Royal Inn Motel,US,Petersburg,23 S Little Church St,37.229694,-77.3928
51539607556,The Savoy Hotel,US,Miami Beach,425 Ocean Dr,25.77385,-80.132075
60129542148,Americas Best Value Inn,US,Florence,3024 Tv Rd,34.26574,-79.73134
77309411328,The Point,US,Saranac Lake,Po Box 1327,44.304794,-74.336525
77309411333,Budget Host,US,Interior,900 Sd Highway 377,43.737682,-101.96541
85899345922,Quality Inn and Suites Eugene-springfield,US,Springfield,3550 Gateway St,44.08588,-123.04228
85899345925,Central House,US,Bar Harbor,60 Cottage St,44.389041,-68.208009
103079215105,Websters Manor,US,Mullins,115 E James St,34.207755,-79.254744
111669149697,Vista Hotel On Lake Tarpon,US,Palm Harbor,37611 Us Highway 19 N,28.115091,-82.739762
111669149700,Comfort Inn,US,Glasgow,210 Calvary Dr,36.985054,-85.9343
120259084291,Econo Lodge Bellmawr,US,Bellmawr,301 S Black Horse Pike,39.86358,-75.07821
128849018883,Sci�� On Martin,US,Washington,Viale 2 Giugno 1,45.54057,8.81226
128849018886,Studio 6,US,Mansfield,7 E Wellsboro St,41.807106,-77.07787
137438953473,Country Inn and Suites By Carlson,US,Elkhart,3250 Northview Dr,41.73513,-85.97723
146028888068,Super 8 Belle Fourche,US,Belle Fourche,501 National St,44.66265,-103.85426
154618822656,Menehune Reservations,US,Kihei,760 S Kihei Rd,20.763436,-156.458353
180388626432,Residence Inn By Marriott Irvine John Wayne Airport,US,Irvine,2855 Main St,33.67971,-117.837279
188978561025,Hyatt Centric Arlington,US,Arlington,1325 Wilson Blvd,38.89493,-77.07247
197568495617,Fairfield Inn & Suites Peoria East,US,East Peoria,200 Eastlight Ct,40.67221051,-89.57642544
197568495622,Cherokee Lodge Bed and Breakfast,US,Coronado,964 D Ave,32.686698,-117.180913
206158430212,Colonial Inns of Ontario,US,Ontario,139 N E Goodfellow St,44.02586,-116.9435
214748364800,Quality Inn,US,Macon,4630 Chambers Rd,32.805482,-83.722511
223338299393,Candlewood Suites Huntersville,US,Huntersville,16530 Northcross Dr,35.44025,-80.87268
231928233986,Narcis,US,Guernsey,Maslinica Bay,45.079082,14.150233
240518168578,Yakima Inn,US,Yakima,1022 N 1st St,46.614468,-120.51191
257698037760,Red Roof Inn,US,Oklahoma City,309 S Meridian Ave,35.463253,-97.60122
266287972352,Gresham Area Hotels,US,Troutdale,23525 N E Halsey St,45.53678,-122.42104
266287972354,Berkshire By The Sea A Vri Resort,US,Delray Beach,126 N Ocean Blvd,26.464654,-80.058094
274877906946,Embassy Suites By Hilton Houston Downtown,US,Houston,1515 Dallas St,29.752848,-95.361488
283467841540,Sumner Motor Inn,US,Sumner,15506 E Main St,47.202366,-122.22269
292057776131,Homewood Suites By Hilton Indpls Airport / Plainfield In,US,Plainfield,2264 E Perry Rd,39.675394,-86.366525
300647710722,Gooding Hotel Bed Breakfast,US,Gooding,112 Main St,42.944965,-114.71284
309237645314,Quality Inn,US,Cleveland,153 James Asbury Dr N W,35.21037,-84.87075
317827579907,Marriott Springhill Marina,US,Marina,215 10th St,36.66457,-121.80524
343597383680,Sunset Inn-yosemite Cabins,US,Groveland,33569 Hardin Flat Rd,37.811924,-119.88103
343597383685,Acorn Motor Inn,US,Oak Harbor,31530 State Route 20,48.288952,-122.657842
360777252866,Holiday Inn Manhattan 6th Ave - Chelsea,US,New York,125 W 26th St,40.74535,-73.992344
369367187459,Quality Inn & Suites - Riverfront,US,Oswego,70 E 1st St,43.45818526,-76.50861875
377957122050,Staybridge Suites Chicago - Glenview,US,Glenview,2600 Lehigh Ave,42.103679,-87.820893
386547056642,Days Inn Bowling Green,US,Bowling Green,1740 E Wooster St,41.374508,-83.61899
395136991233,La Quinta,US,New Orleans,12340 I 10 Service Rd,30.045267,-89.95993
403726925827,Hampton Inn Ft Chiswell,US,Max Meadows,199 Fort Chiswell Rd,36.94077,-80.94398
412316860418,Lindy Motel,US,Coudersport,Rr 6,41.77256,-78.02117
420906795011,Days Inn Branson Mo,US,Branson,3524 Keeter St,36.642942,-93.28783
429496729604,Hotel Garibaldi,US,Silver Creek,Viale Garibaldi 24,45.496711,12.24464
438086664196,Wingate By Wyndham Lagrange,US,Lagrange,103 Wingate Ter,33.042491,-84.964116
438086664198,Sky Vue Motel,US,Alamosa,250 Broadway Ave,37.470883,-105.859652
446676598787,Hampton Inn Suites Columbus,US,Columbus,1915 6th St N,33.514122,-88.42615
455266533380,Solstice,US,Erie,8040 Oliver Rd,42.046699,-80.080429
455266533384,Extended Stay America Grand Rapids - Kentwood,US,Grand Rapids,3747 29th St S E,42.90948,-85.57359
463856467972,H��tel Sezz Paris,US,Irving,6 Avenue Fremiet,48.856543,2.285148
481036337153,Holiday Inn Express Dahlonega,US,Dahlonega,835 S Chestatee St,34.52495,-83.97584
481036337155,Motel 6,US,Santa Barbara,3505 State St,34.440318,-119.738091
489626271748,Tiffany House Bed & Breakfast,US,Redding,1510 Barbara Rd,40.60182,-122.384637
498216206338,Extended Stay America - Fort Lauderdale - Davie,US,Fort Lauderdale,7550 W State Road 84,26.096485,-80.246321
506806140930,Comfort Inn,US,Allentown,3712 Hamilton Blvd,40.57584,-75.53122
515396075522,Comfort Inn and Suites O'fallon,US,O Fallon,100 Comfort Inn Ct,38.800071,-90.679098
523986010113,Hampton Inn Rockford,US,Rockford,615 Clark Rd,42.273094,-88.96704
541165879299,Rainbow Motel,US,South Deerfield,68 State Rd,42.424397,-72.62162
558345748480,Howard Johnson,US,Spokane,3033 N Division St,47.686226,-117.411305
558345748485,Super 8 Longmont / Del Camino,US,Longmont,10805 Turner Blvd,40.158007,-104.981704
566935683075,Mountain Lodge At Telluride - A Noble House Resort,US,Telluride,457 Mountain Village Blvd,37.933273,-107.850865
575525617668,Chalfant House,US,Bishop,213 Academy St,37.36312,-118.396385
592705486849,Economy Inn,US,Dillon,1223 Radford Blvd,34.43614,-79.36981
609885356034,Best Western Plus Circle Inn,US,Enterprise,715 Boll Weevil Cir,31.327117,-85.835556
618475290628,Brasstown Valley Golf Club,US,Young Harris,6321 Us Highway 76,34.958828,-83.84617
635655159809,Old Saco Inn Bed & Breakfast,US,Fryeburg,125 Old Saco Ln,44.016433,-70.980637
644245094400,Best Western of Long Beach,US,Long Beach,1725 Long Beach Blvd,33.78864,-118.189464
652835028996,Hampton Inn Sarasota - I-75 Bee Ridge,US,Sarasota,5995 Cattleridge Blvd,27.300319,-82.450461
652835029001,Comfort Suites Fort Pierce,US,Fort Pierce,6505 Metal Dr,27.412418,-80.390934
661424963588,Super 8 Opelousas,US,Opelousas,5791 I 49 Service Rd S,30.515139,-92.071014
678604832769,Equestrian Estates Horse Farm Bed and Breakfast,US,Lancaster,221 Shultz Rd,39.98925,-76.29837
687194767363,Holiday Inn Express & Suites Lawrence,US,Lawrence,3411 S W Iowa,38.92157,-95.260979
695784701954,Holiday Inn Express,US,Springfield,818 Charlestown Rd,37.9567,-122.331267
704374636544,Fairfield Inn By Marriott Binghamton,US,Binghamton,864,42.130338,-75.905832
704374636547,Comfort Suites,US,Springfield,121 Raydo Cir,39.89509,-83.81486
721554505729,Red Carpet Inn,US,Windom,222 3rd Ave S,43.856357,-95.116243
730144440322,Olde Bridge Inn,US,Caseyville,519 N Main St,38.641903,-90.019974
730144440323,Super 8 Kingston,US,Kingston,905 N Kentucky St,35.87883,-84.51029
738734374914,Happy Tails Hotel & Playland,US,Saint Ann,2920 N Lindbergh Blvd,38.714704,-90.408154
747324309508,Twin Gables of Woodstock,US,Woodstock,73 Tinker St,42.04035,-74.12098
755914244097,Americas Best Value Inn,US,Lancaster,1320 Harrisburg Pike,40.05696,-76.33129
755914244102,Courtyard By Marriott Downtown Boise,US,Boise,222 S Broadway Ave,43.608151,-116.192184
764504178692,Best Western Hartford Hotel & Suites,US,Hartford,185 Brainard Rd,41.734582,-72.65952
773094113281,Holiday Inn Fond Du Lac,US,Fond Du Lac,625 W Rolling Meadows Dr,43.75521,-88.47649
781684047874,Days Inn Suites,US,Grinnell,1902 West St S,41.757133,-92.72739
790273982466,Brightwood Inn Country Inn,US,Oglesby,2407 N Illinois Route 178,41.281081,-89.010139
798863917058,Holiday Inn Express & Suites Weslaco,US,Weslaco,421 S International Blvd,26.171754,-97.958775
807453851649,America's Best Value Inn,US,New Stanton,221 E Byers Ave,40.22014,-79.60615
816043786243,Rideout's Lakeside Lodge Cottages,US,Danforth,6 Waterfront Dr,45.706852,-67.85834
824633720834,Hampton Inn,US,Memphis,2935 N Germantown Rd,35.20632,-89.79189
824633720838,Relax Inn,US,Tucumcari,1010 E Tucumcari Blvd,35.171802,-103.714298
833223655424,Days Inn Kuttawa,US,Kuttawa,139 Days Inn Dr,37.073742,-88.12569
841813590016,Chalet Leon At Hector Falls,US,Burdett,3835 State Route 414,42.41823,-76.86674
850403524608,Saco River Recreational Council,US,Fryeburg,189 Swans Falls Rd,,
858993459202,Comfort Inn,US,Olive Branch,7049 Enterprise Dr,34.963657,-89.856893
858993459206,Drury Inn & Suites Sikeston,US,Sikeston,2608 E Malone Ave,36.89065,-89.540256
867583393794,Sea View Motel,US,Ogunquit,417 Main St,43.25568,-70.59961
876173328388,Dor-shada Resort By The Sea,US,Washington,256 Moo 4 Najomtien,13.368448,100.987206
884763262977,Quality Inn & Suites,US,Carrizo Springs,2611 N Us Hwy 83,28.545881,-99.845145
893353197572,Comfort Inn Humboldt Bay,US,Eureka,4260 Broadway,40.767605,-124.191895
901943132162,The Concorde Inn,US,Clinton Township,44315 Gratiot Ave,42.62301,-82.865685
910533066754,Hilton Santo Domingo,US,New York,George Washington Avenue 500,18.457572,-69.910046
919123001345,Hampton Inn,US,Nashville,7815 Coley Davis Rd,36.07851,-86.95516
936302870528,Tulip Inn Turin West,US,New York,N Corso Allamano 153,45.057607,7.558972
936302870533,Econo Lodge Miles City,US,Miles City,1209 S Haynes Ave,46.39733,-105.82263
944892805127,Great American Inn Suites,US,Devils Lake,1116 Highway 2 E,48.10113,-98.84847
962072674304,Extended Stay America,US,Chattanooga,1401 N Mack Smith Rd,34.994744,-85.225664
970662608897,Super 8 Elko Nv,US,Elko,1755 Idaho St,40.843764,-115.751013
970662608902,Longville Inn,US,Longville,4959 State Highway 84,46.98411,-94.210236
970662608905,Koehne Dexter Terrie,US,Rapid City,6448 Muirfield Dr,44.018333,-103.305374
979252543490,Arizona Inn of Prescott Valley,US,Prescott Valley,7875 E Hwy 69,34.585531,-112.326875
996432412674,Bent Elbow,US,Silverton,1114 Blair St,37.810443,-107.664163
996432412677,Riverside Lodge,US,Canyonville,1786 Stanton Park Rd,42.944057,-123.29112
1005022347266,Mountaintop Lodge Bed Breakfast,US,Pocono Pines,Rr 940 Box 1097,,
1005022347271,West Side Motel,US,Casper,5755 Cy Ave,42.81109,-106.399284
1013612281857,Truckee Tahoe Htl Larkspur,US,Larkspur,125 E Sir Francis Drake Blvd,37.9443,-122.50554
1013612281862,Homewood Suites,US,Columbus,115 Hutchinson Ave,40.11387,-83.01189
1013612281867,Hampton Inn Dublin,US,Dublin,4420 Cleburne Blvd,37.07256,-80.69685
1030792151043,Super 8,US,Pinedale,1054 Pine St,42.86661,-109.8744
1047972020224,Radisson Hotel Hauppauge-long Island,US,Hauppauge,110 Vanderbilt Motor Pkwy,40.806018,-73.26543
1056561954816,Hotel Relais De Margaux Golf and Spa,US,Lake Worth,5 Route De L'ile Vincent,45.054526,-0.658295
1056561954821,Rainbow Motel,US,Pembroke,Rr 1,44.95645,-67.1685
1073741824000,Americinn Lodge Suites Oscoda - Ausable River,US,Oscoda,720 E Harbor St,44.407978,-83.32794
1073741824001,Kaier Mansion,US,Mahanoy City,729 E Centre St,40.814148,-76.13433
1082331758593,Ramada,US,Marina,323 Reservation Rd,36.683665,-121.791551
1090921693185,Quality Inn and Suites Irvine Spectrum,US,Lake Forest,23702 Rockfield Blvd,33.628221,-117.715975
1099511627780,Best Western Hotel De Neuville,US,Irving,3 Rue Verniquet,48.886905,2.300571
1108101562371,Ihg,US,Metropolis,2179 E 5th St,37.1605,-88.7034
1116691496965,Drury Inn and Suites Columbus Convention Center,US,Columbus,88 E Nationwide Blvd,39.969219,-82.999881
1133871366145,Wyndham Resort At Fairfield Mountains,US,Lake Lure,747 Buffalo Creek Rd,35.452157,-82.171594
1142461300736,Extended Stay America - Rockford - I-90,US,Rockford,653 Clark Rd,42.27388,-88.9672
1142461300741,Sand's Motel,US,Portales,1130 W 1st St,34.181306,-103.346036
1151051235331,Anglers Inn,US,Jackson,265 N Millward,43.48286,-110.76506
1168231104512,Days Inn & Suites Vicksburg,US,Vicksburg,4216 Washington St,32.313601,-90.899151
1168231104517,Quality Inn Gulfport,US,Gulfport,9435 Highway 49,30.42519,-89.09263
1185410973696,El Cortez,US,Pittsville,San Felipe,31.02996,-114.8303
1194000908288,Holiday Inn Express Hotel Suites Cookeville,US,Huntsville,1228 Bunker Hill Rd,34.667004,-86.46892
1202590842880,Janmere Motel,US,Hampton,52 Ashworth Ave,42.91046,-70.81342
1202590842882,Mar Mar Resort Tackle,US,Bull Shoals,1512 Central Blvd,36.382416,-92.590965
1202590842887,Milliken Creek Inn,US,Napa,1815 Silverado Trl,38.315025,-122.276152
1211180777475,Torian Plum By Wyndham Vacation Rentals,US,Steamboat Springs,1855 Ski Time Square Dr,40.46016,-106.80411
1219770712067,"Club Quarters, Rockefeller Center",US,New York,25 W 51st St,40.76002,-73.978387
1236950581250,La Quinta,US,Somerset,60 Cottontail Ln,40.55109,-74.5452
1245540515840,Americas Best Value Inn,US,Chico,740 Broadway St,39.72602,-121.83713
1254130450432,Hotel Corpus Christi,US,Corpus Christi,601 N Water St,27.796791,-97.3927
1262720385026,Clatskanie River Inn,US,Clatskanie,600 E Columbia River Hwy,46.102,-123.19881
1271310319618,Budget Inn-santa Maria,US,Santa Maria,1100 N Broadway,34.94034,-120.43602
1279900254209,La Quinta Inn Calhoun,US,Calhoun,150 Cracker Barrel Dr,34.47029,-84.91438
1288490188803,Budget Inn,US,Manchester,2029 Hillsboro Blvd,35.461481,-86.062097
1297080123398,Starwood Resorts Hotel,US,Fall River,230 Sunset Hl,41.682026,-71.18432
1305670057988,Seiling Motel,US,Seiling,302 S Main St,36.144417,-98.9245
1314259992579,Holiday Inn Express Suites Floresville,US,Floresville,929 10th St,29.143097,-98.1546
1322849927171,Hotel Silken Siete Coronas,US,Norcross,Paseo De Garay 5,37.981858,-1.124223
1331439861761,Ramada Inn,US,Forest City,2600 Us Highway 74a Byp,35.330376,-81.88776
1331439861766,Sonoma Coast Villa Spa,US,Bodega Bay,16702 S Highway 1,,
1348619730948,Gateway Studios,US,Champaign,1505 N Neil St,40.131302,-88.243642
1357209665538,Marylander Hotel Condo,US,Ocean City,6 127th St,38.43228,-75.05379
1365799600132,Best Western,US,Bowling Green,2727 Us Highway 17 N,27.597944,-81.824026
1374389534724,America's Best Value Inn,US,Port Aransas,306 S Alister St,27.831008,-97.064581
1391569403908,Sutton Bay Resort,US,Newman Lake,12016 N Sutton Bay Rd,47.766588,-117.103404
1400159338499,Garden of The Gods Club & Resort,US,Colorado Springs,3320 Mesa Rd,38.88037,-104.8682
1417339207683,Fairfield Inn and Suites By Marriott Plainville,US,Plainville,400 New Britain Ave,41.672491,-72.837151
1417339207688,The Abbey Resort,US,Fontana,269 Fontana Blvd,42.548854,-88.576382
1425929142274,Motel 6,US,Eloy,4965 S Sunland Gin Rd,32.8064,-111.67105
1434519076864,Americas Best Value Inn,US,North Kingstown,6481 Post Rd,41.62118,-71.45832
1443109011458,Homewood Suites By Hilton,US,Cedar Rapids,1140 Park Pl N E,42.03019,-91.65231
1443109011461,Melody Lodge Cabins,US,Silverthorne,1534 County Road 30,39.840855,-106.23464
1451698946051,Riverside Motel and Cabins,US,Ennis,346 E Main St,45.349041,-111.724593
1460288880643,Vacation Side Travel,US,Goodlettsville,110 E Cedar St,36.323377,-86.712644
1460288880646,Spring Bay Inn,US,Olga,464 Spring Bay Ter,48.603333,-122.82356
1468878815236,Scenic View Motel,US,Bryson City,1000 Hwy 19 S,35.41966,-83.46169
1468878815241,Best Western,US,Rohnert Park,6500 Redwood Dr,38.345561,-122.714383
1477468749825,The Bluffs Inn Suites,US,Decorah,1101 Highway 9 W,43.291664,-91.79702
1477468749830,Economy Motel,US,Fort Walton Beach,1 Miracle Strip Pkwy Se,30.404133,-86.61323
1503238553605,Extended Stay America - Bloomington - Normal,US,Bloomington,1805 Svetrans Pkwy,40.459739,-88.976728
1520418422786,Econo Lodge Inn & Suites,US,Bloomington,403 Brock Dr,40.481496,-89.02539
1537598291968,Intermezzo,US,Los Olivos,2860 Grand Ave,34.664684,-120.115036
1546188226560,Kilauea Lodge Restaurant,US,Volcano,19 3948 Old Volcano Rd,19.426996,-155.237305
1546188226564,Intown Suites Nashville North,US,Hendersonville,1017 W Main St,36.30493,-86.652794
1554778161155,Radisson Blu Conference and Airport Hotel,US,Englewood,E 5 Karayolu (yanyol) No 20,41.000606,28.802515
1571958030336,Little Belt Inn Neihart,US,Neihart,316 N Main St,46.933598,-110.735886
1580547964931,Best Western Plus,US,Elkridge,6755 Dorsey Rd,39.184298,-76.755591
1597727834113,Fort's Cedar View,US,Ulysses,1675 W Patterson Ave,37.591044,-101.371057
1614907703297,Quality Inn Near Six Flags,US,Douglasville,5479 Westmoreland Plz,33.75146,-84.716395
1623497637890,Spring Fountain Motel,US,Bucksport,196 Us Route 1,44.56941,-68.77128
1632087572481,Skidway Lake Motel,US,Prescott,5341 Acorn Ln,44.180107,-84.032555
1632087572483,Best Western Plus Humboldt House Inn,US,Garberville,701 Redwood Dr,40.101941,-123.794454
1640677507074,Anaheim Marriott Suites,US,Garden Grove,12015 Harbor Blvd,33.78814,-117.916591
1657857376259,Best Western Plus Kelly Inn,US,Saint Cloud,100 4th Ave S,45.56067,-94.15608
1666447310849,Arcola Inn,US,Arcola,236 S Jacques St,39.681672,-88.297515
1675037245440,La Quinta Inn & Suites Dublin,US,Dublin,101 Travel Center Blvd,32.487051,-82.938687
1683627180033,Blue Jay Motel,US,Hampton,186 Ashworth Ave,42.902237,-70.81505
1700807049218,Holiday Inn Express & Suites West Monroe,US,West Monroe,603 Constitution Dr,32.510229,-92.169395
1717986918400,Maison Souquet,FR,Paris,10 rue de Bruxelles 9th arr 75009 Paris France,48.88366,2.3313845
1717986918405,Hotel Crivi s,IT,Milan,Corso di Porta Vigentina 46 Milan City Center 20122 Milan Italy,45.4529643,9.1962217
1726576852993,Hotel Marignan Champs Elys es,FR,Paris,12 rue de Marignan 8th arr 75008 Paris France,48.8685093,2.3067895
1726576852996,Nottingham Place Hotel,GB,London,37 Nottingham Place Westminster Borough London W1U 5LT United Kingdom,51.522143,-0.153385
1735166787585,Le Lavoisier,FR,Paris,21 rue Lavoisier 8th arr 75008 Paris France,48.8737702,2.3201063
1743756722179,Holiday Inn Paris Gare de l Est,FR,Paris,5 rue du 8 Mai 1945 10th arr 75010 Paris France,48.8758981,2.3590504
1743756722184,Ayre Hotel Rosell n,ES,Barcelona,Rossell 390 Eixample 08025 Barcelona Spain,41.4047382,2.1727127
1752346656775,NH Amsterdam Zuid,NL,Amsterdam,Van Leijenberghlaan 221 Zuideramstel 1082 GG Amsterdam Netherlands,52.3266672,4.8800884
1760936591362,Millennium Hotel London Knightsbridge,GB,London,17 25 Sloane Street Knightsbridge Kensington and Chelsea London SW1X 9NU United Kingdom,51.4999683,-0.1599927
1760936591366,Hidden Hotel by Elegancia,FR,Paris,28 Rue de l Arc de Triomphe 17th arr 75017 Paris France,48.8775326,2.293458
1760936591371,Palazzo Segreti,IT,Milan,Via San Tomaso 8 b Milan City Center 20121 Milan Italy,45.4672309,9.184154
1769526525956,Mandarin Oriental Hyde Park London,GB,London,66 Knightsbridge Westminster Borough London SW1X 7LA United Kingdom,51.5022081,-0.1599428
1769526525962,TownHouse Duomo,IT,Milan,Via Silvio Pellico 2 Milan City Center 20121 Milan Italy,45.4648822,9.1893265
1778116460548,The Marble Arch London,GB,London,31 Great Cumberland Place Westminster Borough London W1H 7TA United Kingdom,51.5151247,-0.1600656
1778116460553,NH Milano Machiavelli,IT,Milan,Via Lazzaretto 5 Central Station 20124 Milan Italy,45.4776167,9.2016244
1786706395139,Crowne Plaza Amsterdam South,NL,Amsterdam,George Gershwinlaan 101 Zuideramstel 1082 MT Amsterdam Netherlands,52.3357326,4.8743947
1795296329730,Novotel London City South,GB,London,53 61 Southwark Bridge Road Southwark London SE1 9HH United Kingdom,51.5054832,-0.0951196
1795296329731,Hotel Montaigne,FR,Paris,6 Avenue Montaigne 8th arr 75008 Paris France,48.865467,2.3038811
1803886264320,Idol Hotel,FR,Paris,16 rue d Edimbourg 8th arr 75008 Paris France,48.8795369,2.3202966
1803886264325,Novotel Wien City,AT,Vienna,Aspernbr ckengasse 1 02 Leopoldstadt 1020 Vienna Austria,48.2134246,16.3831309
1812476198914,Best Western The Boltons Hotel London Kensington,GB,London,19 21 Penywern Road Kensington and Chelsea London SW5 9TT United Kingdom,51.4907493,-0.1934627
1812476198919,The May Fair Hotel,GB,London,Stratton Street Mayfair Westminster Borough London W1J 8LT United Kingdom,51.5078943,-0.1436707
1821066133507,Crowne Plaza London Ealing,GB,London,Western Avenue Ealing London W5 1HG United Kingdom,51.5403942,-0.3697581
1829656068099,The Belgrave Hotel,GB,London,80 86 Belgrave Road Westminster Borough London SW1V 2BJ United Kingdom,51.4901051,-0.1381355
1829656068104,Hotel Imlauer Wien,AT,Vienna,Rotensterngasse 10 02 Leopoldstadt 1020 Vienna Austria,48.2176776,16.3821364
1846835937281,Graben Hotel,AT,Vienna,Dorotheergasse 3 01 Innere Stadt 1010 Vienna Austria,48.2078955,16.3701084
1855425871872,Avo Hotel,GB,London,82 Dalston Lane Hackney London E8 3AH United Kingdom,51.5460628,-0.0700817
1864015806467,Relais Christine,FR,Paris,3 Rue Christine 6th arr 75006 Paris France,48.8542454,2.339956
1864015806472,Petit Palace Barcelona,ES,Barcelona,Roger De Lluria 21 Esq Gran Via 662 Eixample 08037 Barcelona Spain,41.3909816,2.1714938
1872605741058,Rochester Champs Elysees,FR,Paris,92 Rue La Boetie 8th arr 75008 Paris France,48.8724945,2.3091549
1881195675649,The Drayton Court Hotel,GB,London,2 The Avenue Ealing London W13 8PH United Kingdom,51.5141842,-0.3192925
1881195675654,H tel Waldorf Trocad ro,FR,Paris,97 rue Lauriston 16th arr 75016 Paris France,48.8672694,2.2878666
1881195675656,Mandarin Oriental Milan,IT,Milan,Via Andegari 9 Milan City Center 20121 Milan Italy,45.4694772,9.1909325
1889785610243,Hotel Royal Elys es,FR,Paris,6 Avenue Victor Hugo 16th arr 75116 Paris France,48.8729666,2.2926226
1889785610248,Zenit Barcelona,ES,Barcelona,Santal 8 Sarri St Gervasi 08021 Barcelona Spain,41.3949199,2.1468594
1898375544835,Mercure Hotel Amsterdam Centre Canal District,NL,Amsterdam,Noorderstraat 46 Amsterdam City Center 1017 TV Amsterdam Netherlands,52.3611852,4.8936341
1906965479426,South Place Hotel,GB,London,3 South Place City of London London EC2M 2AF United Kingdom,51.5189182,-0.0866009
1915555414017,Tryp Barcelona Apolo Hotel,ES,Barcelona,Avenida Paralelo 57 59 Sants Montju c 08004 Barcelona Spain,41.3747031,2.1707106
1915555414022,Hotel Wagner,IT,Milan,Via M Buonarroti 13 Fiera Milano City 20149 Milan Italy,45.4684949,9.1550355
1924145348612,AC Hotel Irla a Marriott Lifestyle Hotel,ES,Barcelona,Calvet 40 42 Sarri St Gervasi 08021 Barcelona Spain,41.3948175,2.1434702
1932735283201,Hotel Das Tigra,AT,Vienna,Tiefer Graben 14 20 01 Innere Stadt 1010 Vienna Austria,48.2121772,16.3680771
1941325217794,Fielding Hotel,GB,London,4 Broad Court Bow Street Covent Garden Westminster Borough London WC2B 5QZ United Kingdom,51.5139315,-0.1219893
1941325217799,NH City Centre Amsterdam,NL,Amsterdam,Spuistraat 288 292 Amsterdam City Center 1012 VX Amsterdam Netherlands,52.3697554,4.8887815
1949915152384,Royal Garden Hotel,GB,London,2 24 Kensington High St Kensington and Chelsea London W8 4PT United Kingdom,51.5027022,-0.1882164
1958505086977,Madeleine Plaza,FR,Paris,33 place de la Madeleine 8th arr 75008 Paris France,48.8710402,2.3248014
1967095021569,Novotel Suites Paris Expo Porte de Versailles,FR,Paris,4 Boulevard Brune 14th arr 75014 Paris France,48.827388,2.305478
1967095021574,Hotel Bagu s,ES,Barcelona,La Rambla 105 Ciutat Vella 08002 Barcelona Spain,41.3827894,2.1715636
1975684956164,Timhotel Op ra Grands Magasins,FR,Paris,35 Rue La Bruy re 9th arr 75009 Paris France,48.8794682,2.3334957
1975684956170,Hotel Sunflower,IT,Milan,Piazzale Lugano 10 Bovisa 20158 Milan Italy,45.498503,9.1664111
1984274890756,Hotel Mercure Wien City,AT,Vienna,Hollandstra e 3 02 Leopoldstadt 1020 Vienna Austria,48.2152663,16.376103
1992864825347,Radisson Blu Style Hotel Vienna,AT,Vienna,Herrengasse 12 01 Innere Stadt 1010 Vienna Austria,48.2101211,16.3655537
2001454759936,The Cranley Hotel,GB,London,10 Bina Gardens South Kensington Kensington and Chelsea London SW5 0LA United Kingdom,51.4916378,-0.1832833
2001454759941,Hotel Alimara,ES,Barcelona,Berruguete 126 Horta Guinard 08035 Barcelona Spain,41.4337561,2.147327
2010044694530,Novotel Paris Gare De Lyon,FR,Paris,2 Rue Hector Malot 12th arr 75012 Paris France,48.8453785,2.3753036
2018634629120,Hotel Mercure La Sorbonne Saint Germain des Pr s,FR,Paris,14 Rue de la Sorbonne 5th arr 75005 Paris France,48.8493499,2.3430569
2018634629124,Best Western Tour Eiffel Invalides,FR,Paris,35 Boulevard de la tour Maubourg 7th arr 75007 Paris France,48.8593152,2.3104179
2018634629129,NH Danube City,AT,Vienna,Wagramer Stra e 21 22 Donaustadt 1220 Vienna Austria,48.2353789,16.4219737
2027224563715,Best Western Hotel City,IT,Milan,Corso Buenos Aires 42 5 Central Station 20124 Milan Italy,45.4858877,9.2042827
2027224563722,Hotel Landhaus Fuhrgassl Huber,AT,Vienna,Rathstra e 24 Neustift am Walde 19 D bling 1190 Vienna Austria,48.2508693,16.304957
2035814498307,Golden Tulip Washington Opera,FR,Paris,50 rue de Richelieu 1st arr 75001 Paris France,48.866242,2.3373169
2044404432898,H tel Diva Opera,FR,Paris,11 rue de Tr vise 9th arr 75009 Paris France,48.8732706,2.3450746
2044404432903,The Westbury A Luxury Collection Hotel Mayfair London,GB,London,Bond Street Mayfair Westminster Borough London W1S 2YF United Kingdom,51.5144418,-0.146432
2052994367490,The Whitechapel,GB,London,49 53 New Road Tower Hamlets London E1 1HH United Kingdom,51.5161286,-0.0624458
2061584302080,Amp re,FR,Paris,102 Avenue de Villiers 17th arr 75017 Paris France,48.8848583,2.2997023
2061584302085,Hotel Boutique Duomo,IT,Milan,Via Mac Mahon 45 Sempione 20155 Milan Italy,45.4909585,9.1614268
2070174236676,Hotel Manzoni,IT,Milan,Via Santo Spirito 20 Milan City Center 20121 Milan Italy,45.470238,9.195347
2078764171266,Hotel Derby,ES,Barcelona,Loreto 21 25 Les Corts 08029 Barcelona Spain,41.3897735,2.1419762
2087354105857,Chateau Frontenac,FR,Paris,54 rue Pierre Charron 8th arr 75008 Paris France,48.8689468,2.3026559
2095944040449,The LaLit London,GB,London,181 Tooley Street Southwark London SE1 2JR United Kingdom,51.5032524,-0.078179
2095944040452,Medinaceli,ES,Barcelona,Duc De Medinaceli 8 Ciutat Vella 08002 Barcelona Spain,41.3781685,2.1786627
2104533975040,Hotel Maison Ath n e,FR,Paris,19 Rue De Caumartin 9th arr 75009 Paris France,48.8713421,2.3280723
2113123909635,The Premier Notting Hill,GB,London,5 7 Princes Square Kensington and Chelsea London W2 4NP United Kingdom,51.5127453,-0.1926437
2121713844225,H tel Mathis Elys es,FR,Paris,3 rue de Ponthieu 8th arr 75008 Paris France,48.8700325,2.3112736
2130303778818,citizenM Tower of London,GB,London,40 trinity square City of London London EC3N 4DJ United Kingdom,51.510237,-0.0764428
2130303778823,Best Western Atlantic Hotel,IT,Milan,Via Napo Torriani 24 Central Station 20124 Milan Italy,45.4830211,9.2033246
2138893713410,Best Western Premier Trocadero La Tour,FR,Paris,5 bis rue Massenet 16th arr 75016 Paris France,48.8583127,2.2795075
2147483648001,Park Grand London Kensington,GB,London,33 37 Hogarth Road Kensington and Chelsea London SW5 0QQ United Kingdom,51.4938468,-0.1917582
2156073582592,The Rembrandt,GB,London,11 Thurloe Place Knightsbridge Kensington and Chelsea London SW7 2RS United Kingdom,51.4959227,-0.1702917
2156073582595,H tel L Echiquier Op ra Paris MGallery by Sofitel,FR,Paris,38 rue de l Echiquier 10th arr 75010 Paris France,48.8719889,2.3492913
2156073582600,H10 Casanova,ES,Barcelona,Gran Via 559 Eixample 08012 Barcelona Spain,41.3842608,2.1609471
2164663517187,Blakemore Hyde Park,GB,London,30 Leinster Gardens Bayswater Westminster Borough London W2 3AN United Kingdom,51.5129736,-0.1837431
2173253451777,Radisson Blu Portman Hotel London,GB,London,22 Portman Square Westminster Borough London W1H 7BG United Kingdom,51.5161911,-0.1579487
2181843386368,Ace Hotel London Shoreditch,GB,London,100 Shoreditch High Street Hackney London E1 6JQ United Kingdom,51.5254162,-0.0772849
2181843386376,Best Western Delphi Hotel,NL,Amsterdam,Apollolaan 101 105 Oud Zuid 1077 AN Amsterdam Netherlands,52.3504558,4.8770194
2190433320961,The Bryson Hotel,GB,London,124 Clerkenwell Rd Camden London EC1R 5DJ United Kingdom,51.5220869,-0.1082443
2190433320965,Arenas Atiram Hotels,ES,Barcelona,Capitan Arenas 20 Les Corts 08034 Barcelona Spain,41.3904305,2.1262314
2199023255553,Hotel Park Lane Paris,FR,Paris,4 Rue La Boetie 8th arr 75008 Paris France,48.8745879,2.3188143
2207613190144,The Park City Grand Plaza Kensington Hotel,GB,London,18 30 Lexham Gardens Kensington and Chelsea London W8 5JE United Kingdom,51.4954976,-0.1893691
2207613190146,Golden Tulip Opera de Noailles,FR,Paris,9 rue de la Michodi re 2nd arr 75002 Paris France,48.8696173,2.3346428
2216203124738,Radisson Blu Champs Elys es Paris,FR,Paris,78 Bis Avenue Marceau 8th arr 75008 Paris France,48.8719212,2.2971404
2224793059329,Hotel Pulitzer,ES,Barcelona,Bergara 8 Eixample 08002 Barcelona Spain,41.386136,2.1682914
2233382993921,Hotel Op ra Richepanse,FR,Paris,14 Rue du Chevalier de Saint George 1st arr 75001 Paris France,48.8686931,2.325211
2233382993926,Antares Hotel Accademia,IT,Milan,Viale Certosa 68 Certosa 20155 Milan Italy,45.4921089,9.1476806
2241972928518,AC Hotel Milano a Marriott Lifestyle Hotel,IT,Milan,Via Tazzoli 2 Garibaldi Station 20154 Milan Italy,45.4851799,9.1831189
2250562863108,Glam Milano,IT,Milan,Piazza Duca D Aosta 4 6 Central Station 20124 Milan Italy,45.4838504,9.2034067
2259152797700,Apex London Wall Hotel,GB,London,7 9 Copthall Avenue City of London London EC2R 7NJ United Kingdom,51.5160484,-0.0880181
2259152797704,Sheraton Diana Majestic,IT,Milan,Viale Piave 42 Milan City Center 20129 Milan Italy,45.4736557,9.2066824
2267742732292,H10 London Waterloo,GB,London,284 To 302 Waterloo Road Southwark London SE1 8RQ United Kingdom,51.4988817,-0.1062888
2267742732299,IH Hotels Milano Puccini,IT,Milan,Corso Buenos Aires 33 Central Station 20124 Milan Italy,45.4794406,9.2096756
2276332666883,Holiday Inn London Regent s Park,GB,London,Carburton Street Westminster Borough London W1W 5EE United Kingdom,51.5222472,-0.1426128
2284922601475,45 Park Lane Dorchester Collection,GB,London,45 Park Lane Westminster Borough London W1K 1PN United Kingdom,51.5063709,-0.1515359
2284922601480,Amsterdam Marriott Hotel,NL,Amsterdam,Stadhouderskade 12 Oud West 1054 ES Amsterdam Netherlands,52.362514,4.8800077
2293512536066,H tel Belloy Saint Germain By Happyculture,FR,Paris,2 Rue Racine 6th arr 75006 Paris France,48.8503901,2.3422527
2293512536068,Elys es R gencia,FR,Paris,41 Avenue Marceau 16th arr 75016 Paris France,48.8686434,2.2984054
2293512536073,Renaissance Barcelona Hotel,ES,Barcelona,Pau Clar s 122 Eixample 08009 Barcelona Spain,NA,NA
2302102470658,The Henrietta Hotel,GB,London,14 Henrietta Street Westminster Borough London WC2E 8QH United Kingdom,51.5109079,-0.1238221
2302102470662,Sir Albert Hotel,NL,Amsterdam,Albert Cuypstraat 2 6 Oud Zuid 1072 CT Amsterdam Netherlands,52.3544507,4.8875036
2302102470667,Baglioni Hotel Carlton The Leading Hotels of the World,IT,Milan,Via Senato 5 Milan City Center 20121 Milan Italy,45.4691663,9.1984454
2310692405252,Mercure Josefshof Wien,AT,Vienna,Josefsgasse 4 6 08 Josefstadt 1080 Vienna Austria,48.2085627,16.3541687
2310692405254,Hotel Am Parkring,AT,Vienna,Parkring 12 01 Innere Stadt 1010 Vienna Austria,48.2056333,16.3778615
2310692405259,UNA Hotel Mediterraneo,IT,Milan,Via L Muratori 14 Porta Romana 20135 Milan Italy,45.451873,9.20548
2319282339844,Grupotel Gran Via 678,ES,Barcelona,Gran Via de les Corts Catalanes 678 Eixample 08010 Barcelona Spain,41.392344,2.1729157
2319282339849,Hotel du Vin Cannizaro House Wimbledon,GB,London,Westside Wimbledon Common Wimbledon London SW19 4UE United Kingdom,51.4242413,-0.2293503
2327872274436,Alexandra Barcelona A DoubleTree by Hilton,ES,Barcelona,Mallorca 251 Eixample 08008 Barcelona Spain,41.3931918,2.16152
2336462209027,H tel Exquis by Elegancia,FR,Paris,71 Rue de Charonne 11th arr 75011 Paris France,48.8536854,2.3805796
2336462209032,Sall s Hotel Pere IV,ES,Barcelona,Pallars 128 130 Sant Mart 08018 Barcelona Spain,41.3969273,2.192267
2345052143618,London Marriott Hotel Regents Park,GB,London,128 King Henry s Road Camden London NW3 3ST United Kingdom,51.5421476,-0.1703073
2345052143623,Fleming s Conference Hotel Wien,AT,Vienna,Neubaug rtel 26 28 07 Neubau 1070 Vienna Austria,48.1995177,16.3388225
2353642078210,The Westin Paris Vend me,FR,Paris,3 rue de Castiglione 1st arr 75001 Paris France,48.8657394,2.3274415
2362232012803,Great St Helen Hotel,GB,London,36 Great st Helens City of London London EC3A 6AP United Kingdom,51.5149583,-0.0823869
2362232012808,WestCord Art Hotel Amsterdam 4 stars,NL,Amsterdam,Spaarndammerdijk 304 Westerpark 1013 ZX Amsterdam Netherlands,52.3924898,4.8683822
2370821947399,Hotel Cavendish,GB,London,75 Gower Street Camden London WC1E 6HJ United Kingdom,51.5220522,-0.132414
2379411881985,The Soho Hotel,GB,London,4 Richmond Mews Westminster Borough London W1D 3DH United Kingdom,51.5139805,-0.1337948
2379411881991,Onix Liceo,ES,Barcelona,Nou de la Rambla 36 Ciutat Vella 08001 Barcelona Spain,41.3780229,2.1730782
2388001816579,Sanderson A Morgans Hotel,GB,London,50 Berners Street Westminster Borough London W1T 3NG United Kingdom,51.5174853,-0.1372109
2388001816584,The Tower A Guoman Hotel,GB,London,St Katherines Way Tower Hamlets London E1W 1LD United Kingdom,51.5064721,-0.0716893
2396591751172,Holiday Inn London Whitechapel,GB,London,5 Cavell Street Tower Hamlets London E1 2BP United Kingdom,51.5154006,-0.0572364
2405181685760,Prince de Galles a Luxury Collection hotel Paris,FR,Paris,33 avenue George V 8th arr 75008 Paris France,48.869143,2.3006526
2405181685766,Hotel Mercure Milano Solari,IT,Milan,Via Pietro Orseolo 1 Navigli 20144 Milan Italy,45.4565757,9.1684824
2413771620356,NH Amsterdam Centre,NL,Amsterdam,Stadhouderskade 7 Oud West 1054 ES Amsterdam Netherlands,52.3630682,4.8794451
2422361554947,Hotel La Villa Saint Germain Des Pr s,FR,Paris,29 Rue Jacob 6th arr 75006 Paris France,48.8553486,2.3340736
2430951489537,H tel France d Antin Op ra,FR,Paris,22 rue d Antin 2nd arr 75002 Paris France,48.8692566,2.3339369
2430951489543,Hotel Midmost,ES,Barcelona,Pelayo 14 Ciutat Vella 08001 Barcelona Spain,41.3856173,2.1659487
2439541424131,Grand Hotel Central,ES,Barcelona,Via Laietana 30 Ciutat Vella 08003 Barcelona Spain,41.3849695,2.1776631
2448131358724,Am Spiegeln,AT,Vienna,Johann H rbiger Gasse 30 23 Liesing 1230 Vienna Austria,48.1537005,16.2825822
2456721293313,Novotel London Blackfriars,GB,London,46 Blackfriars Road Southwark London SE1 8NZ United Kingdom,51.5050165,-0.1049831
2465311227907,Jumeirah Lowndes Hotel,GB,London,Lowndes Street Kensington and Chelsea London SW1X 9ES United Kingdom,51.4993652,-0.1576613
2473901162501,Sina De La Ville,IT,Milan,Via Hoepli 6 Milan City Center 20121 Milan Italy,45.465957,9.192297
2482491097091,Majestic Hotel Spa,FR,Paris,30 Rue La P rouse 16th arr 75016 Paris France,48.8703672,2.2938868
2491081031682,Innkeeper s Lodge London Greenwich,GB,London,291 Greenwich High Road Greenwich Greenwich London SE10 8NA United Kingdom,51.4801631,-0.0097201
2499670966274,Novotel London Paddington,GB,London,3 Kingdom Street Sheldon Square Westminster Borough London W2 6BD United Kingdom,51.519032,-0.1825943
2508260900866,Radisson Blu Edwardian Berkshire,GB,London,350 Oxford Street Westminster Borough London W1C 1BY United Kingdom,51.5146025,-0.1481978
2516850835456,Hotel Astor Saint Honor,FR,Paris,11 Rue d Astorg 8th arr 75008 Paris France,48.8728324,2.3193886
2516850835460,Eurostars Ramblas,ES,Barcelona,La Rambla 22 24 Ciutat Vella 08002 Barcelona Spain,41.3780983,2.1762005
2525440770050,H tel Le Bellechasse Saint Germain,FR,Paris,8 Rue De Bellechasse 7th arr 75007 Paris France,48.8597024,2.3239701
2525440770055,W Amsterdam,NL,Amsterdam,Spuistraat 175 Amsterdam City Center 1012 VN Amsterdam Netherlands,52.3727871,4.8900059
2534030704640,London Marriott Hotel Park Lane,GB,London,140 Park Lane Westminster Borough London W1K 7AA United Kingdom,51.5131428,-0.1576714
2534030704645,Best Western Plus Hotel Galles,IT,Milan,Piazza Lima 2 Central Station 20124 Milan Italy,45.4805847,9.2117326
2542620639233,Nolinski Paris,FR,Paris,16 Avenue de l Opera 1st arr 75001 Paris France,48.8654874,2.3348924
2542620639237,Ibis Styles Milano Palmanova,IT,Milan,Via Palmanova 153 20132 Milan Italy,45.5045259,9.246461
2551210573828,Hotel Whistler,FR,Paris,36 rue de Saint Quentin 10th arr 75010 Paris France,48.879314,2.3560185
2551210573833,STRAF a Member of Design Hotels,IT,Milan,Via San Raffaele 3 Milan City Center 20121 Milan Italy,45.465237,9.191247
2559800508417,Hotel Champs Elys es Friedland by Happyculture,FR,Paris,177 rue du faubourg Saint Honor 8th arr 75008 Paris France,48.8750848,2.3048372
2568390443009,The Park Tower Knightsbridge a Luxury Collection Hotel,GB,London,101 Knightsbridge Westminster Borough London SW1X 7RN United Kingdom,51.5014191,-0.1625805
2568390443017,IH Hotels Milano Gioia,IT,Milan,Via della Giustizia 10 D Bicocca Zara 20125 Milan Italy,45.49952,9.206138
2585570312193,Royal Hotel Champs Elys es,FR,Paris,33 avenue de Friedland 8th arr 75008 Paris France,48.8740463,2.300196
2585570312201,Imperial Riding School Renaissance Vienna Hotel,AT,Vienna,Ungargasse 60 03 Landstra e 1030 Vienna Austria,48.1966396,16.3863822
2594160246788,Sixtytwo Hotel,ES,Barcelona,Passeig de Gracia 62 Eixample 08007 Barcelona Spain,41.3930168,2.1646148
2602750181381,Hotel Indigo London Kensington,GB,London,34 44 Barkston Gardens Kensington and Chelsea London SW5 0EW United Kingdom,51.4920287,-0.1917801
2602750181386,W Paris Op ra,FR,Paris,Place de l Op ra 4 rue Meyerbeer 9th arr 75009 Paris France,48.8719697,2.3316014
2611340115973,K West Hotel Spa,GB,London,Richmond Way Hammersmith and Fulham London W14 0AX United Kingdom,51.5013149,-0.2174459
2628519985153,H tel Le Walt,FR,Paris,37 Avenue De La Motte Picquet 7th arr 75007 Paris France,48.8547161,2.306642
2637109919744,La Villa Haussmann,FR,Paris,132 Boulevard Haussmann 8th arr 75008 Paris France,48.8753446,2.3167161
2637109919749,Leonardo Hotel Vienna,AT,Vienna,Matrosengasse 6 8 06 Mariahilf 1060 Vienna Austria,48.1945297,16.340327
2654289788930,Mercure Wien Zentrum,AT,Vienna,Fleischmarkt 1a 01 Innere Stadt 1010 Vienna Austria,48.2114087,16.3746469
2662879723523,Melia Barcelona Sky 4 Sup,ES,Barcelona,Diagonal Pere IV 272 Sant Mart 08005 Barcelona Spain,41.4061636,2.2008956
2662879723527,Le M ridien Barcelona,ES,Barcelona,Ramblas 111 Ciutat Vella 08002 Barcelona Spain,41.3837453,2.171014
2671469658115,Hotel 55,GB,London,Hanger Lane Ealing London W5 3HL United Kingdom,51.5213303,-0.2915052
2680059592708,H10 Metropolitan 4 Sup,ES,Barcelona,Rambla Catalunya 7 9 Eixample 08007 Barcelona Spain,41.3875467,2.1673975
2688649527296,The Grosvenor,GB,London,101 Buckingham Palace Road Westminster Borough London SW1W 0SJ United Kingdom,51.4956657,-0.1452793
2688649527301,Paddington Court Executive Rooms,GB,Paddington,3 Devonshire Terrace Westminster Borough London W2 3DN United Kingdom,51.5138357,-0.1797976
2697239461889,H tel Crayon Rouge by Elegancia,FR,Paris,42 rue Croix des Petits Champs 1st arr 75001 Paris France,48.8644967,2.3405415
2697239461893,Catalonia La Pedrera,ES,Barcelona,C rcega 368 Eixample 08037 Barcelona Spain,41.3986093,2.1625037
2705829396483,Hotel Le Saint Gregoire,FR,Paris,43 Rue De l Abb Gr goire 6th arr 75006 Paris France,48.8471891,2.3260138
2714419331074,Hotel Murmuri Barcelona,ES,Barcelona,Rambla Catalunya 104 Eixample 08008 Barcelona Spain,41.3941625,2.1597836
2723009265667,The Levin Hotel,GB,London,28 Basil Street Kensington and Chelsea London SW3 1AS United Kingdom,51.4998574,-0.161717
2723009265672,NH Milano Grand Hotel Verdi,IT,Milan,Via Melchiorre Gioia 6 Garibaldi Station 20124 Milan Italy,45.4814923,9.192023
2731599200260,Hotel Berna,IT,Milan,Via Napo Torriani 18 Central Station 20124 Milan Italy,45.4826692,9.2034371
2740189134852,Schlosshotel R mischer Kaiser,AT,Vienna,Annagasse 16 01 Innere Stadt 1010 Vienna Austria,48.2040859,16.3725046
2748779069444,Mercure Amsterdam Sloterdijk Station,NL,Amsterdam,Naritaweg 1 Westpoort 1043 BP Amsterdam Netherlands,52.3872884,4.8349748
2757369004034,The Mandeville Hotel,GB,London,Mandeville Place Westminster Borough London W1U 2BE United Kingdom,51.5165165,-0.1509735
2765958938631,Hotel Santa Marta Suites,IT,Milan,Via Santa Marta 4 Milan City Center 20123 Milan Italy,45.4630441,9.183607
2774548873220,Sina The Gray,IT,Milan,Via San Raffaele 6 Milan City Center 20121 Milan Italy,45.4655368,9.1914986
2783138807814,Ham Yard Hotel,GB,London,One Ham Yard Westminster Borough London W1D 7DT United Kingdom,51.511174,-0.1349904
2791728742402,Victoires Opera,FR,Paris,56 rue de Montorgueil 2nd arr 75002 Paris France,48.8648997,2.3469433
2800318676995,Le Grand H tel de Normandie,FR,Paris,4 rue Amsterdam 9th arr 75009 Paris France,48.8759461,2.3270955
2800318677000,The Langham London,GB,London,Portland Place Westminster Borough London W1B 1JA United Kingdom,51.517876,-0.1440647
2808908611587,Hotel Monceau Wagram,FR,Paris,7 Rue Rennequin 17th arr 75017 Paris France,48.8808779,2.2989756
2808908611589,Club Quarters Hotel Trafalgar Square,GB,London,8 Northumberland Avenue Westminster Borough London WC2N 5BY United Kingdom,51.506935,-0.126012
2817498546180,Hilton Vienna Danube Waterfront,AT,Vienna,Handelskai 269 02 Leopoldstadt 1020 Vienna Austria,48.2140659,16.4217627
2817498546185,Nhow Milan,IT,Milan,Via Tortona 35 Navigli 20144 Milan Italy,45.4510425,9.1606536
2826088480771,Hotel Mailberger Hof,AT,Vienna,Annagasse 7 01 Innere Stadt 1010 Vienna Austria,48.204183,16.3726664
2826088480776,TownHouse 33,IT,Milan,Via Carlo Goldoni 33 Citt Studi 20129 Milan Italy,45.4693349,9.2142383
2834678415364,H tel Le Relais Saint Germain,FR,Paris,9 Carrefour de l Od on 6th arr 75006 Paris France,48.8519208,2.338878
2843268349953,H tel Ad le Jules,FR,Paris,2 4bis Cit Rougemont 9th arr 75009 Paris France,48.8721062,2.3451384
2843268349958,Atlantis Hotel Vienna,AT,Vienna,Wurzbachgasse 21 15 Rudolfsheim F nfhaus 1150 Vienna Austria,48.2037451,16.3356767
2851858284545,Holiday Inn Paris Gare de Lyon Bastille,FR,Paris,11 15 Rue De Lyon 12th arr 75012 Paris France,48.8468064,2.3714789
2851858284550,St George s Hotel Wembley,GB,London,43 51 Wembley Hill Road Brent London HA9 8AU United Kingdom,51.5553678,-0.2864945
2851858284555,Hotel K nig von Ungarn,AT,Vienna,Schulerstra e 10 01 Innere Stadt 1010 Vienna Austria,48.2082215,16.3751842
2860448219137,H tel Les Dames du Panth on,FR,Paris,19 place du Panth on 5th arr 75005 Paris France,48.845743,2.34493
2869038153730,Le Tsuba Hotel,FR,Paris,45 Rue des Acacias 17th arr 75017 Paris France,48.8777621,2.293177
2877628088320,The Trafalgar Hilton,GB,London,2 Spring Gardens Trafalgar Square Westminster Borough London SW1A 2TS United Kingdom,51.507374,-0.129135
2877628088324,Hotel Vondel Amsterdam,NL,Amsterdam,Vondelstraat 18 30 Oud West 1054 GE Amsterdam Netherlands,52.3625662,4.8779225
2886218022916,Saint SHERMIN bed breakfast champagne,AT,Vienna,Rilke Platz 7 04 Wieden 1040 Vienna Austria,48.1978409,16.367087
2903397892097,Caesar Hotel,GB,London,26 33 Queens Gardens Westminster Borough London W2 3BE United Kingdom,51.5134603,-0.1833081
2911987826691,Eiffel Trocad ro,FR,Paris,35 Rue Benjamin Franklin 16th arr 75016 Paris France,48.8613055,2.2862823
2920577761280,Mercure Paris Arc de Triomphe Etoile,FR,Paris,27 avenue des Ternes 17th arr 75017 Paris France,48.8782679,2.294852
2920577761285,Best Western Blue Tower Hotel,NL,Amsterdam,Leeuwendalersweg 21 Bos en Lommer 1055 JE Amsterdam Netherlands,52.3793659,4.8457179
2929167695875,Hotel Barcelona Catedral,ES,Barcelona,Capellans 4 Ciutat Vella 08002 Barcelona Spain,41.384829,2.1751277
2937757630468,Hotel du Louvre in the Unbound Collection by Hyatt,FR,Paris,Place Andr Malraux 1st arr 75001 Paris France,48.8639788,2.3352615
2946347565060,Ozo Hotel,NL,Amsterdam Zuidoost,Karspeldreef 2 Zuidoost 1101 CJ Amsterdam Netherlands,52.3047669,4.9476868
2954937499651,Holiday Inn Paris Op ra Grands Boulevards,FR,Paris,30 32 Boulevard Poissonni re 9th arr 75009 Paris France,48.8715469,2.3439622
2954937499656,art otel Amsterdam,NL,Amsterdam,Prins Hendrikkade 33 Amsterdam City Center 1012 TM Amsterdam Netherlands,52.377743,4.897057
2963527434240,H tel Moli re,FR,Paris,21 rue Moli re 1st arr 75001 Paris France,48.8655293,2.3360102
2963527434242,Le A,FR,Paris,4 rue d Artois 8th arr 75008 Paris France,48.8723844,2.3088663
2972117368835,Hotel Indigo Barcelona Plaza Catalunya,ES,Barcelona,Gran Via de las Corts Catalanes 629 Eixample 08010 Barcelona Spain,41.391362,2.1700953
2980707303428,Element Amsterdam,NL,Amsterdam,Arend Janszoon Ernststraat 577 Zuideramstel 1082 LD Amsterdam Netherlands,52.3312406,4.8774466
2980707303432,Hotel Imperial A Luxury Collection Hotel,AT,Vienna,K rntner Ring 16 01 Innere Stadt 1015 Vienna Austria,48.2012505,16.3731255
2989297238017,H tel Regina Op ra Grands Boulevards,FR,Paris,11 Bis rue Mazagran 10th arr 75010 Paris France,48.8708508,2.3515882
2997887172610,WestCord Fashion Hotel Amsterdam,NL,Amsterdam,Hendrikje Stoffelstraat 1 Slotervaart 1058 GC Amsterdam Netherlands,52.357655,4.844576
2997887172612,Starhotels Anderson,IT,Milan,Piazza Luigi di Savoia 20 Central Station 20124 Milan Italy,45.4852549,9.2069501
3006477107202,Urban Lodge Hotel,NL,Amsterdam,Arlandaweg 10 Westpoort 1043 EW Amsterdam Netherlands,52.3856494,4.834443
3015067041793,B Montmartre,FR,Paris,6 Rue Lecluse 17th arr 75017 Paris France,48.883631,2.3257643
3023656976386,Arbor Hyde Park,GB,London,36 37 Lancaster Gate Westminster Borough London W2 3NA United Kingdom,51.5126488,-0.1803795
3023656976391,Hotel Casa Fuster G L Monumento,ES,Barcelona,Passeig de Gracia 132 Gr cia 08008 Barcelona Spain,41.3980162,2.1581229
3032246910981,Occidental Atenea Mar Adults Only,ES,Barcelona,Paseo Garc a Faria 37 47 Sant Mart 08019 Barcelona Spain,41.4023621,2.2119049
3040836845570,The Montcalm At Brewery London City,GB,London,52 Chiswell Street City of London London EC1Y 4SD United Kingdom,51.5208155,-0.0915319
3040836845575,Monument Hotel,ES,Barcelona,Paseo de Gracia 75 Eixample 08008 Barcelona Spain,41.3939082,2.1622556
3049426780163,Henry VIII,GB,London,23 Leinster Gardens Westminster Borough London W2 3AN United Kingdom,51.5124655,-0.182274
3049426780168,Megaro Hotel,GB,London,Belgrove Street Camden London WC1H 8AB United Kingdom,51.5294411,-0.1233745
3066606649345,Hotel Elys es Bassano,FR,Paris,24 rue Bassano 16th arr 75016 Paris France,48.8689307,2.2974503
3066606649350,Hotel Carlton s Montmartre,FR,Paris,55 Bld Rochechouart 9th arr 75009 Paris France,48.8819068,2.3410005
3066606649354,Hotel La Spezia Gruppo MiniHotel,IT,Milan,Via La Spezia 25 Famagosta 20142 Milan Italy,45.4408963,9.1728003
3075196583939,Mercure Paris Bastille Marais,FR,Paris,53 Rue Richard Lenoir 11th arr 75011 Paris France,48.8571207,2.3805581
3075196583944,Best Western Plus Hotel Felice Casati,IT,Milan,Via Felice Casati 18 Central Station 20124 Milan Italy,45.4787357,9.2041131
3083786518529,Hotel Vignon,FR,Paris,23 Rue Vignon 8th arr 75008 Paris France,48.8717146,2.3261812
3092376453120,H tel Duo,FR,Paris,11 Rue Du Temple 4th arr 75004 Paris France,48.8581186,2.3529369
3092376453125,Hotel Front Maritim,ES,Barcelona,Paseo Garc a I Faria 69 71 Sant Mart 08019 Barcelona Spain,41.4037972,2.213767
3092376453127,Albus Hotel Amsterdam City Centre,NL,Amsterdam,Vijzelstraat 49 Amsterdam City Center 1017 HE Amsterdam Netherlands,52.365823,4.893243
3100966387715,Vincci Gala,ES,Barcelona,Ronda Sant Pere 32 Eixample 08010 Barcelona Spain,41.3895263,2.1747136
3109556322307,The Zetter Townhouse Marylebone,GB,London,28 30 Seymour Street Westminster Borough London W1H 7JB United Kingdom,51.514839,-0.1586656
3109556322310,Shaftesbury Metropolis London Hyde Park,GB,Paddington,78 84 Sussex Gardens Westminster Borough London W2 1UH United Kingdom,51.5166887,-0.1706147
3118146256896,Milestone Hotel Kensington,GB,London,1 Kensington Court Kensington and Chelsea London W8 5DL United Kingdom,51.5020425,-0.1866541
3118146256901,Atahotel Linea Uno,IT,Milan,Viale Monza 139 Distretto Viale Monza 20125 Milan Italy,45.50054,9.2208089
3126736191490,Villa Panth on,FR,Paris,41 Rue Des Ecoles 5th arr 75005 Paris France,48.8488044,2.3469889
3126736191495,Ayre Hotel Gran V a,ES,Barcelona,Gran V a de les Corts Catalanes 322 Sants Montju c 08004 Barcelona Spain,41.3732462,2.1474351
3135326126082,Room Mate Giulia,IT,Milan,Silvio Pellico 4 Milan City Center 20121 Milan Italy,45.4651371,9.1895249
3143916060672,Mercure London Kensington Hotel,GB,London,1a Lexham Gardens Kensington and Chelsea London W8 5JJ United Kingdom,51.4950098,-0.1906195
3143916060677,NH Amsterdam Noord,NL,Amsterdam,Distelkade 21 Amsterdam Noord 1031 XP Amsterdam Netherlands,52.3923684,4.9110442
3152505995264,Intercontinental London The O2,GB,London,1 Waterview Drive Greenwich London SE10 0TW United Kingdom,51.5024348,-0.0002497
3152505995268,Hilton London Metropole,GB,Paddington,225 Edgware Road Westminster Borough London W2 1JU United Kingdom,51.5195688,-0.170521
3161095929856,Best Western Premier Le Swann,FR,Paris,15 rue de Constantinople 8th arr 75008 Paris France,48.8797331,2.3206003
3161095929863,The Cumberland A Guoman Hotel,GB,London,Great Cumberland Place Westminster Borough London W1H 7DL United Kingdom,51.514879,-0.1606501
3169685864451,Catalonia Eixample 1864,ES,Barcelona,Roger de Ll ria 60 Eixample 08009 Barcelona Spain,41.393599,2.1684151
3178275799046,Hotel Romana Residence,IT,Milan,Corso di Porta Romana 64 Milan City Center 20122 Milan Italy,45.4572218,9.1937008
3178275799051,Strandhotel Alte Donau,AT,Vienna,Wagramer Stra e 51 22 Donaustadt 1220 Vienna Austria,48.2390022,16.4292329
3186865733638,Seraphine Kensington Gardens Hotel,GB,London,7 9 High Street Kensington Kensington and Chelsea London W8 5NP United Kingdom,51.5021027,-0.187901
3195455668224,Simply Rooms Suites,GB,London,21 Avonmore Road Kensington Hammersmith and Fulham London W14 8RP United Kingdom,51.4944875,-0.2070605
3204045602816,Le Marceau Bastille,FR,Paris,13 Rue Jules Cesar 12th arr 75012 Paris France,48.8490691,2.3697484
3204045602821,Hotel Eitlj rg,AT,Vienna,Filmteichstra e 5 10 Favoriten 1100 Vienna Austria,48.1513676,16.4064709
3212635537409,Park Grand London Lancaster Gate,GB,London,14 16 Craven Hill Lancaster Gate Westminster Borough London W2 3DU United Kingdom,51.5132069,-0.1807816
3212635537410,Landmark London,GB,Paddington,222 Marylebone Road Westminster Borough London NW1 6JQ United Kingdom,51.519016,-0.166267
3221225472001,The Portobello Hotel,GB,London,22 Stanley Gardens Kensington and Chelsea London W11 2NG United Kingdom,51.512257,-0.2034244
3221225472006,Club Hotel Cortina,AT,Vienna,Hietzinger Hauptstra e 134 13 Hietzing 1130 Vienna Austria,48.1877942,16.2727214
3229815406593,Royal Saint Michel,FR,Paris,3 Boulevard Saint Michel 5th arr 75005 Paris France,48.8528364,2.3440803
3238405341185,BoB Hotel by Elegancia,FR,Paris,30 rue Pernety 14th arr 75014 Paris France,48.8335233,2.3191194
3238405341191,Ambassade Hotel,NL,Amsterdam,Herengracht 341 Amsterdam City Center 1016 AZ Amsterdam Netherlands,52.369391,4.8871721
3246995275780,Hotel Am Schubertring,AT,Vienna,Schubertring 11 01 Innere Stadt 1010 Vienna Austria,48.2017277,16.375463
3255585210372,AC Hotel Barcelona Forum a Marriott Lifestyle Hotel,ES,Barcelona,Paseo Taulat 278 Sant Mart 08019 Barcelona Spain,41.4101306,2.2188047
3264175144960,Grange Beauchamp Hotel,GB,London,24 27 Bedford Place Bloomsbury Camden London WC1B 5JH United Kingdom,51.5203266,-0.1245891
3264175144965,Vincci Bit,ES,Barcelona,Josep Pla 69 Sant Mart 08019 Barcelona Spain,41.4114188,2.211756
3281355014145,Hotel SB Icaria Barcelona,ES,Barcelona,Avinguda Icaria 195 Sant Mart 08005 Barcelona Spain,41.3935591,2.1993915
3289944948738,The Royal Park Hotel,GB,Paddington,3 Westbourne Terrace Lancaster Gate Westminster Borough London W2 3UL United Kingdom,51.5142054,-0.1766098
3298534883329,H tel Etoile Saint Honor by Happyculture,FR,Paris,214 rue du Faubourg Saint Honor 8th arr 75008 Paris France,48.8756508,2.3041568
3307124817920,Park Plaza Sherlock Holmes London,GB,London,108 Baker Street Westminster Borough London W1U 6LJ United Kingdom,51.5209191,-0.1566567
3315714752513,Le Littr,FR,Paris,9 Rue Littr 6th arr 75006 Paris France,48.8454447,2.3242814
3324304687105,Grand H tel Du Palais Royal,FR,Paris,4 Rue De Valois 1st arr 75001 Paris France,48.8630829,2.3378592
3324304687110,Hotel Palais Strudlhof,AT,Vienna,Pasteurgasse 1 09 Alsergrund 1090 Vienna Austria,48.2217697,16.3578738
3332894621698,Axel Hotel Barcelona Urban Spa Adults Only,ES,Barcelona,Aribau 33 Eixample 08011 Barcelona Spain,41.3873478,2.1603987
3341484556288,The Cleveland,GB,London,39 40 Cleveland Square Westminster Borough London W2 6DA United Kingdom,51.5139692,-0.1828202
3350074490881,Pullman Paris Tour Eiffel,FR,Paris,18 Avenue De Suffren Entr e au 22 rue Jean Rey 15th arr 75015 Paris France,48.8555664,2.2926243
3358664425472,Atala Champs Elys es,FR,Paris,10 rue Chateaubriand 8th arr 75008 Paris France,48.8735418,2.302442
3358664425477,Artus Hotel by MH,FR,Paris,34 Rue de Buci 6th arr 75006 Paris France,48.8535639,2.3360169
3367254360065,Hotel Le Chat Noir,FR,Paris,68 Boulevard De Clichy 18th arr 75018 Paris France,48.8836255,2.3340538
3375844294657,Hotel Tour d Auvergne Opera,FR,Paris,10 Rue de la Tour d Auvergne 9th arr 75009 Paris France,48.8789432,2.3448623
3375844294663,Hotel Xanadu,GB,London,26 42 Bond Street Ealing London W5 5AA United Kingdom,51.5117907,-0.306071
3384434229249,First Hotel Paris Tour Eiffel,FR,Paris,2 Bd Garibaldi 15th arr 75015 Paris France,48.8475112,2.3022198
3384434229254,Austria Trend Hotel Rathauspark Wien,AT,Vienna,Rathausstra e 17 01 Innere Stadt 1010 Vienna Austria,48.2133054,16.3567884
3393024163842,Bentley London,GB,London,27 33 Harrington Gardens Kensington and Chelsea London SW7 4JX United Kingdom,51.4928147,-0.1841753
3393024163847,Banks Mansion All Inclusive Hotel,NL,Amsterdam,Herengracht 519 525 Amsterdam City Center 1017 BV Amsterdam Netherlands,52.3653868,4.8931979
3393024163849,TownHouse 12,IT,Milan,Piazza Gerusalemme 12 Sempione 20154 Milan Italy,45.4844028,9.1673528
3401614098432,London Suites,GB,London,230 A Mile End Road Tower Hamlets London E1 4LJ United Kingdom,51.5215508,-0.0469238
3401614098437,The Westbourne Hyde Park,GB,Paddington,51 Gloucester Terrace Westminster Borough London W2 3DQ United Kingdom,51.5131074,-0.1778707
3410204033026,Best Western Premier Faubourg 88,FR,Paris,88 rue du Faubourg Poissoni re 10th arr 75010 Paris France,48.8776756,2.3493159
3418793967618,every hotel Piccadilly,GB,London,39 Coventry Street Westminster Borough London W1D 6BZ United Kingdom,51.5101462,-0.1315061
3418793967624,Room Mate Aitana,NL,Amsterdam,IJdock 6 Amsterdam City Center 1013 MM Amsterdam Netherlands,52.3846059,4.8941866
3427383902209,H tel Barri re Le Fouquet s,FR,Paris,46 Avenue George V 8th arr 75008 Paris France,48.8710709,2.3013119
