Id,Name,Country,City,Address,Latitude,Longitude
0,The Amble Inn,US,Fennville,2790 Blue Star Hwy,42.621235,-86.21178
5,Days Inn Tallulah,US,Tallulah,143 Highway 65 S,32.38469,-91.19936
8589934595,Spinners Tailspin Inn,US,Kankakee,1895 S Schuyler Ave,41.09319,-87.86923
17179869185,Fireline Hotel,US,Palmerton,1065 Fireline Rd,40.80952,-75.65106
25769803778,The Governor Hotel,US,Portland,614 S W 11th Ave,45.52085,-122.6828
34359738368,Eden Park Guest House,US,Takoma Park,7063 Carroll Ave,38.97528,-77.00991
34359738372,Knights Inn - Wilmington,US,Wilmington,24001 Lorenzo Rd,41.34598,-88.1956
42949672963,Edgewater Inn & Cottages,US,Eagle River,5054 State Highway 70 W,45.914957,-89.274311
42949672968,Residence Inn By Marriott Hartford Downtown,US,Hartford,942 Main St,41.76808,-72.67297
51539607553,Hampton Inn & Suites Fort Worth-west-i-30,US,Fort Worth,2700 Green Oaks Rd,32.73509,-97.43459
60129542145,Mt Gardner Inn,US,Winthrop,611 State Route 20,48.470364,-120.17681
68719476737,Four Points By Sheraton Memphis Southwind,US,Memphis,4090 Stansell Ct,35.03692,-89.7989
77309411330,Hampton Inn & Suites Syracuse/carrier Circle,US,East Syracuse,6377 Court Street Rd,43.09081892,-76.07916895
77309411335,Clarion Inn Strasburg - Lancaster,US,Strasburg,1400 Historic Dr,39.987151,-76.176214
94489280512,Econo Lodge,US,Maumee,1704 Toll Gate Dr,41.58826,-83.66668
103079215107,Monterey Beach Dunes Inn,US,Marina,3280 Dunes Dr,36.69925,-121.805553
120259084288,Holiday Inn Rutland-killington Area,US,Rutland,476 Holiday Dr,43.59359,-72.962371
128849018880,Haltom Inn,US,Haltom City,4526 E Belknap St,32.788714,-97.279915
128849018888,Sunset Inn,US,Worthington,1923 Dover St,43.62909,-95.58076
137438953475,Ambiance,US,Franklin Park,2955 Mannheim Rd,41.930763,-87.884415
146028888065,Landmark Inn Lakes-mountain Region,US,Laconia,480 Main St,43.52591,-71.46874
146028888070,Best Western,US,Deming,1500 W Pine St,32.266278,-107.79062
163208757249,Hotel Roc Lago Rojo,US,Abbeville,Calle Miami 5,36.610974,-4.503823
163208757252,Super 8 Crete Ne,US,Crete,1880 W 12th St,40.62246,-96.98471
180388626434,Best Western,US,Brookfield,28622 Highway 11,39.765741,-93.079983
197568495616,Hyatt Regency Kathmandu,US,Alliance,Taragaon Boudha,27.7216,85.355959
197568495619,Four Seasons Hotel St. Louis,US,Saint Louis,999 N Second St,38.633021,-90.184037
206158430209,Days Inn Bangor Airport,US,Bangor,250 Odlin Rd,44.791314,-68.810204
206158430214,Summit At Big Sky,US,Big Sky,50 Big Sky Resort Rd,45.28646,-111.3932
214748364802,La Quinta,US,Prattville,261 Interstate Commercial Park Loop,32.485813,-86.40931
223338299395,Pine Shadows Motel,US,West Yellowstone,229 N Hayden St,44.663464,-111.110565
249108103168,Regency Inn Motel,US,Perry,3108 W Fir St,36.288362,-97.329861
257698037762,Samui Cliff View Resort & Spa,US,Eden,211/1 Moo 4,9.486392,100.065182
266287972356,Comfort Inn and Suites Bend,US,Bend,62065 27th St,44.05227,-121.26361
283467841537,Old Wheeler Hotel,US,Wheeler,495 Highway 101,45.68964,-123.88225
292057776128,Centennial Bed and Breakfast,US,Holland,8 E 12th St,42.78621,-86.106875
292057776133,Inturotel Esmeralda Park,US,Ridgefield Park,Calo Des Corral S/n,39.37752,3.23729
300647710724,Days Inn North Columbia Ft. Jackson,US,Blythewood,114 Blythewood Rd,34.21438,-80.97437
317827579904,Silver Run Cabins,US,Yellville,14 Silver Run Ln,36.105263,-92.610975
326417514496,Best Western Owasso Inn & Suites,US,Owasso,7653 N Owasso Expy,36.265007,-95.846871
343597383682,Hampton Inn Bloomington West,US,Bloomington,906 Maple Hill Rd,40.487383,-89.035188
352187318273,Budget Inn South,US,Fort Lauderdale,1317 S Federal Hwy,26.10565,-80.136986
369367187456,Greektown Casino,US,Detroit,555 E Lafayette Blvd,42.334646,-83.041229
369367187461,Holiday Inn Express & Suites South Portland,US,South Portland,303 Sable Oaks Dr,43.64021565,-70.33737787
377957122051,Mericana Motel,US,Fort Madison,4501 Avenue O 61,40.62387,-91.37009
386547056644,Hampton Inn Grand Junction Downtown/historic Main Street,US,Grand Junction,205 Main St,39.067321,-108.569141
395136991235,Americas Best Value Inn - Medical Center/airport,US,El Paso,450 Raynolds St,31.77634,-106.43274
403726925824,Shoshone Lodge,US,Cody,349 N Fork Hwy,44.51714,-109.0812
403726925829,Eldorado Inn,US,Baker City,695 Campbell St,44.78164,-117.81462
420906795008,The Kinney - Venice Beach,US,Marina Del Rey,737 W Washington Blvd,33.987299,-118.45369
429496729601,Robins Roost Cabins,US,Hill City,12630 Robins Roost Rd,43.943866,-103.534561
438086664193,Bellaire Motel Lodge,US,Port Sanilac,120 S Ridge St,43.429146,-82.54247
446676598784,Extended Stay America - Los Angeles - Ontario Airport,US,Ontario,3990 Inland Empire Blvd,34.068836,-117.563225
455266533377,Ramada,US,Laurel,1105 Sawmill Rd,31.693611,-89.13289
455266533382,Innisbrook,US,Palm Harbor,36750 Us Highway 19 N,28.10667,-82.739915
463856467969,Tidewater Inn,US,West Yarmouth,135 Route 28,41.657447,-70.261804
472446402561,Meadow Farm Bed and Breakfast,US,Northwood,454 Jenness Pond Rd,43.262497,-71.24301
489626271745,Days Inn Branson / Near The Strip,US,Branson,2316 Shepherd,36.65133,-93.26739
489626271750,Motel 6,US,Sierra Vista,1551 E Fry Blvd,31.554729,-110.281579
498216206340,Liberty Lodge,US,Hayward,12521 N Nelson Rd,46.08463,-91.21697
506806140932,Royal Dutch Inn,US,Dutch Harbor,Captains Bay Rd,53.854797,-166.55904
515396075524,Super 8 Worthington Minnesota,US,Worthington,850 Lucy Dr,43.635653,-95.621864
541165879296,Martin Mason Hotel,US,Deadwood,33 Deadwood St,44.376034,-103.7299
549755813888,Little Paradise Hotel,US,Palm Springs,435 E Avenida Olancha,33.802822,-116.54269
558345748482,Holiday Inn Express Gatesville,US,Gatesville,111 Highway 36 Byp N,31.433666,-97.7154
566935683072,Gran Melia Victoria,US,Clifton,Avenida Joan Miro 21,39.5639,2.62598
575525617664,Thunderbird Executive Inn and Conference Center,US,Glendale,15249 N 59th Ave,33.620773,-112.185661
575525617665,Alpine Motel,US,Providence,485 Douglas Ave,41.84353,-71.42781
584115552256,Hunting Lodge,US,Finleyville,3529 Washington Ave,40.252094,-80.00437
592705486851,Outside Inn,US,Las Vegas,9941 W Charleston Blvd,36.15889,-115.31277
618475290625,Candlewood Suites Fort Smith,US,Fort Smith,7501 Madison Ave,35.3481292,-94.34935539
627065225217,Economy Inn,US,Harrisonburg,3467 N Valley Pike,38.478158,-78.821924
652835028993,Saddleback Motor Inn,US,Rangeley,2303 Main Street Us Rt 4,44.965683,-70.64271
652835028998,Super 8 Bradenton Sarasota Area,US,Bradenton,6516 14th St W,27.424069,-82.575539
661424963585,Village Lodge,US,Ruidoso,1000 Mechem Dr,33.351721,-105.674432
661424963590,Holiday Inn Express,US,Bowlinggreen,2150 E Wooster St,41.374331,-83.608374
678604832771,Holiday Inn Express Hotel and Suites Hesperia,US,Hesperia,9750 Key Point Ave,34.42794,-117.38383
687194767365,Holiday Inn Victorville,US,Victorville,15494 Palmdale Rd,34.50722,-117.32561
695784701956,Courtyard Burlington Harbor,US,Burlington,25 Cherry St,44.47912,-73.21863
712964571136,Big Mountain Lodge,US,Whitefish,6390 Us Highway 93 S,48.391121,-114.335838
721554505731,Comfort Inn and Suites,US,Black River Falls,W 10170 Highway 54 E,44.29782,-90.82021
730144440325,Super 8 Blackwell Ok,US,Blackwell,1014 W Doolin Ave,36.8115,-97.29803
747324309505,"Holiday Inn Express Howe (sturgis, Mi)",US,Howe,45 W 750 N,,
755914244099,Rapid City Days Inn,US,Rapid City,1901 W Main St,44.07962,-103.24987
764504178689,Econo Lodge,US,London,105 Melcon Ln,37.145106,-84.108375
773094113283,Residence Inn Burlington Colchester,US,Colchester,71 Rathe Rd,44.51407,-73.18283
781684047876,Hamton Inn New Orleans Westbank,US,Harvey,1651 5th St,29.889694,-90.0578
790273982468,"La Posada Lodge & Casitas, An Ascend Hotel Collection Member",US,Tucson,5900 N Oracle Rd,32.31373,-110.977477
798863917060,Bear Cove Inn,US,Saint Ignace,2055 Business Loop I 75,45.87557,-84.73229
807453851651,1900 House,US,Narragansett,59 Kingstown Rd,41.431695,-71.461518
816043786240,Super 8 Ithaca,US,Ithaca,400 S Meadow St,42.436007,-76.508315
816043786245,40 Berkeley Hostel,US,Boston,40 Berkeley St,42.346133,-71.071032
824633720836,Extended Stay America Philadelphia - Exton,US,Exton,877 N Route 100,40.362305,-75.62609
824633720840,Days Inn Lincolnton,US,Lincolnton,614 Clark Dr,35.47112,-81.23998
833223655426,Miami Executive Hotel,US,Miami,4350 S W 8th St,25.76433,-80.26619
841813590018,Mccamly Plaza Hotel,US,Battle Creek,50 Capital Ave S W,42.312,-85.19201
841813590020,Candlewood Suites Eugene Springfield,US,Eugene,3005 Franklin Blvd,44.04401959,-123.0476193
850403524610,Extended Stay America - Columbia - Northwest Harbison,US,Irmo,1170 Kinley Rd,34.09128,-81.16052
858993459204,Comfort Suites Mount Vernon,US,Mount Vernon,404 S 44th St,38.31069,-88.9489
858993459208,River Oaks Golf Villas,US,Myrtle Beach,590 River Oaks Dr,33.72237,-78.92113
876173328385,Excellence Riviera Cancun - Adults Only - All Inclusive,US,Mont Belvieu,Carr Federal 307 Chet Pto Juarez,20.87549,-86.86814
893353197569,Briarcliff,US,Great Barrington,506 Stockbridge Rd,42.238323,-73.33482
893353197574,Tmc Resort Rentals,US,Montgomery,14001 Walden Rd,30.40422,-95.63431
901943132163,The Merritt Center and Lodge,US,Payson,121 Haught Rd,34.25475,-111.27377
910533066756,Four Seasons Country Inn,US,Glasgow,4107 Scottsville Rd,36.954535,-85.961849
919123001347,Best Western University Inn & Suites,US,Forest Grove,3933 Pacific Ave,45.52078,-123.07752
936302870530,Arion,US,Ramey,40 Apollonos St,37.812115,23.774569
944892805120,Doubletree By Hilton Hotel Bay City - Riverfront,US,Bay City,1 Wenonah Park Pl,43.596927,-83.891054
944892805124,Melia Paris Champs-elys��es,US,Irving,102 Avenue Victor Hugo,48.868568,2.282725
953482739713,Holiday Inn Express Eagle,US,Eagle,75 Pond Rd,39.659771,-106.830495
962072674306,Americas Best Value Inn,US,Galesburg,29 Public Sq 2,40.94788,-90.37126
962072674309,Candlewood Suites Indianapolis Northwest,US,Indianapolis,7455 Woodland Dr,39.888268,-86.26509
970662608899,Holiday Inn Express Hotel and Suites Raleigh-wakefield,US,Raleigh,11400 Common Oaks Dr,35.95036,-78.54278
970662608904,Hotel Roc Flamingo,US,Abbeville,Av De Isabel Manoja 9,36.62315,-4.50121
970662608907,Holiday Inn Express Hotel and Suites Cambridge,US,Cambridge,250 Msgr O'brien Hwy,42.373389,-71.081492
987842478081,Country Inn & Suites By Carlson,US,Crystal Lake,600 Tracy Trl,42.228017,-88.297272
996432412676,Red Carpet Inn,US,Oskaloosa,2278 Highway 63,41.32402,-92.64586
996432412679,Simoni's Fremont Inn,US,Stockton,2303 W Fremont St,37.955647,-121.327894
1005022347268,Roy-el Motel,US,Wapello,405 Highway 61 S,41.174864,-91.190254
1013612281859,Super 8 Pittsburgh/monroeville,US,Pittsburgh,1807 Golden Mile Hwy,40.4461,-79.7139
1013612281864,Pavilion Lodge,US,Avalon,Po Box 737,33.3649,-118.3815
1022202216449,Microtel Inn Suites By Wyndham San Antonio By Seaworld,US,San Antonio,1605 W Loop 1604 S,29.41358,-98.70959
1030792151040,Country Inns Suites,US,Iron Mountain,2005 S Stephenson Ave,45.841633,-88.04958
1039382085632,Quality Inn,US,Dublin,4424 Cleburne Blvd,37.07262,-80.69679
1047972020226,Country Inn & Suites By Carlson,US,Clinton,710 Park Pl,36.16315,-84.08504
1056561954818,Wilshire Inn Motel,US,Cushing,1720 E Main St,35.9856,-96.74215
1065151889408,Holiday Inn Express Hotel and Suites Memphis Southwind,US,Memphis,4068 Stansell Ct,35.03565,-89.79881
1073741824003,Best Western Hotel Goldenmile Milan,US,Washington,Viale Cristoforo Colombo 33,45.42665054,9.071522086
1082331758595,Hampton Inn Virginia Beach Oceanfront North,US,Virginia Beach,3107 Atlantic Ave,36.859787,-75.978035
1099511627777,Harrah's Laughlin Hotel and Casino,US,Laughlin,2900 S Casino Dr,35.144281,-114.577492
1108101562368,The Houstonian Hotel,US,Houston,111 N Post Oak Ln,29.768461,-95.459631
1116691496960,Quality Inn,US,Decatur,2120 Jameson Pl S W,34.57757,-87.020861
1125281431553,Motel 6,US,Buena Park,7051 Valley View St,33.858124,-118.02875
1133871366147,Wyndham Vacation Resorts Towers On The Grove,US,North Myrtle Beach,2100 N Ocean Blvd,33.82734,-78.645195
1142461300738,Terrace Inns Suites,US,El Cerrito,10869 San Pablo Ave,37.915024,-122.31116
1151051235328,Eldorado Suites Hotel,US,Bisbee,55 Ok St,31.443132,-109.91349
1151051235333,Clarion Suites Philadelphia,US,Philadelphia,1010 Race St,39.95546,-75.15647
1151051235334,Atlanta Marriott Northwest At Galleria,US,Atlanta,200 N Interstate Pkwy Se,33.89723,-84.46652
1168231104514,Knights Inn Eau Claire,US,Eau Claire,6260 Texaco Dr,44.84402,-91.59572
1176821039105,Gardena Terrace Inn,US,Gardena,15902 S Western Ave,33.886224,-118.309143
1185410973698,Point Randall Resort,US,Lake Ozark,1584 Susan Rd,38.206224,-92.665213
1194000908290,Hilton Americas-houston,US,Houston,1600 Lamar,29.75143553,-95.36045909
1202590842884,Red Roof Inn St Louis - Troy,US,Troy,2030 Formosa Rd,38.734557,-89.913938
1211180777472,Jellico Days Inn North Tennessee,US,Jellico,I75 Us 25w Exit 160,36.58786,-84.126875
1219770712065,Inroads Ireland Tours,US,Madison,2918 Stevens St,43.072693,-89.439605
1228360646657,Super 8 Chicago O'hare Airport,US,Elk Grove Village,2951 Touhy Ave,42.007953,-87.936614
1236950581252,Holiday Inn Express Henderson,US,Henderson,200 Simmons St,36.334415,-78.440755
1254130450434,Holiday Inn Express Hotel and Suites Va Beach Oceanfront,US,Virginia Beach,2607 Atlantic Ave,36.85497235,-75.97641885
1262720385028,Ambassador Inn Albuquerque,US,Albuquerque,1520 Candelaria Rd N E,35.114822,-106.62761
1271310319620,Super 8 Metropolis,US,Metropolis,2055 E 5th St,37.162308,-88.690626
1288490188800,Sir Walter Raleigh Inns of Greenbelt,US,College Park,6323 Greenbelt Rd,38.996452,-76.903755
1297080123393,Days Inn Newton,US,Newton,105 Manchester Ave,38.043312,-97.320388
1297080123395,Holiday Inn Express Hotel & Suites Bloomington-normal,US,Normal,1715 Parkway Plaza Dr,40.51398,-88.952632
1305670057985,Comfort Inn,US,Bonita Springs,9800 Bonita Beach Rd,26.331369,-81.787918
1305670057990,Hampton Inn Abilene,US,Abilene,3917 Ridgemont Dr,32.40399,-99.76546
1314259992576,Fh Hotel Villa Fiesole,US,Ames,Via Beato Angelico 35,43.801897,11.298293
1322849927168,Country Inn Walker,US,Walker,442 Walker Bay Blvd,47.09124,-94.57172
1322849927173,Aspen Haus Bed and Breakfast,US,Healy,18 Hematite Pl,63.877674,-149.00726
1322849927175,Newark Budget Inn,US,Newark,176 W Church St,40.057014,-82.41043
1331439861763,Hampton Inn Roanoke/salem,US,Salem,1886 Electric Rd,37.265157,-80.03187
1340029796353,Castle Kona Reef,US,Kailua Kona,75 5888 Alii Dr,19.629903,-155.988787
1348619730945,The Inn On Negley,US,Pittsburgh,703 S Negley Ave,40.453283,-79.931668
1348619730950,The Dec,US,Aberdeen,720 Lamont St S,45.457684,-98.441345
1357209665540,Super 8 Van Horn,US,Van Horn,1807 E Frontage Rd,29.671524,-95.037971
1365799600129,Towneplace Suites Albany University Area,US,Albany,1379 Washington Ave,42.686743,-73.815101
1374389534721,Hotel Mc Call,US,Mccall,1101 N 3rd St,44.910785,-116.097702
1382979469313,Plaza Hotel and Casino - Las Vegas,US,Las Vegas,1 Main St,36.171617,-115.146375
1391569403905,Leakey Springs Cabins,US,Concan,Rr 1120,,
1400159338496,Garden Bed and Breakfast,US,Deansboro,2827 State Route 12b,43.00021,-75.42649
1408749273089,Sam's Town Hotel & Gmblng Hall,US,Robinsonville,1477 Casino Strip Resort Blvd,34.819119,-90.411665
1417339207680,Holiday Inn Express & Suites Portland,US,Portland,100 Holiday Dr,40.439227,-84.99398
1417339207685,Sand Dunes Motel,US,Mosca,5465 N State Highway 17,37.65417,-105.87038
1425929142272,Motel 6,US,Gustine,12733 State Highway 33,37.11165,-121.01571
1425929142276,Avalon Hotel Group,US,Gonzales,916 S Burnside Ave 400,30.22585,-90.92064
1434519076866,Sunset Inn,US,Oroville,1835 Feather River Blvd,39.504005,-121.569869
1451698946048,Boardroom Motel,US,Oakland,12678 Garrett Hwy,39.420506,-79.399055
1460288880640,La Quinta Inn-houston,US,Houston,930 Normandy St,29.773048,-95.206568
1468878815233,Inn At Queen Anne,US,Seattle,505 1st Ave N,47.62332,-122.35542
1468878815238,Comfort Suites,US,Southfield,24977 Northwestern Hwy,42.472016,-83.241718
1477468749827,Hotel Olcott,US,New York,27 W 72nd St,,
1494648619009,Sheraton Baltimore North Hotels,US,Towson,903 Dulaney Valley Rd,39.40659,-76.60111
1503238553602,Warwick Denver,US,Denver,1776 Grant St,39.744501,-104.983568
1511828488193,Lake Raystown Resort Lodge & Conference Center,US,Entriken,100 Chipmunk Xing,40.340052,-78.200615
1529008357376,Canyon Gate Motel,US,Spearfish,503 Spearfish Canyon Rd,44.476166,-103.84841
1529008357378,Sands Central Inn Hot Springs,US,Hot Springs National Park,1525 Centeral Ave,34.49832,-93.05674
1537598291970,Comfort Inn,US,College Park,8601 Baltimore Ave,38.99565,-76.9319
1546188226562,Comfort Inn,US,Edinburg,4001 Closner Business 281,26.33373,-98.248491
1554778161152,The Inn @ St. Botolph,US,Boston,99 Saint Botolph St,,
1563368095745,Pelican Shores Inn,US,Lincoln City,2645 N W Inlet Ave,44.98465469,-124.0137872
1571958030338,Sterling Motel,US,Austin,1507 W Oakland Ave,43.666462,-92.99311
1580547964928,Rangeland Court Motel & Rv,US,Moorcroft,108 N Yellowstone Ave,44.264012,-104.95052
1589137899520,Octagon Inn,US,Navajo Dam,2 County Road 4275,36.8921,-107.603
1606317768704,Hotel Vorbach,US,Ashburn,Johnsallee 63 67,53.566245,9.988144
1614907703299,Beach Haven Vacation Rental House,US,Beach Haven,2108 S Bay Ave,39.550227,-74.24943
1623497637892,Super 8 Columbia East,US,Columbia,5700 Freedom Dr,38.961861,-92.24376
1632087572485,Hilton Garden Inn Oconomowoc,US,Oconomowoc,1443 Pabst Farms Cir,43.0719,-88.46372
1657857376256,Hilton Garden Inn Austin Nw - Arboretum,US,Austin,11617 Research Blvd,30.416106,-97.744278
1657857376260,Hampton Inn & Suites Douglas,US,Douglas,1730 Muirfield Ct,42.67756,-105.333191
1666447310851,Baymont Inn & Suites Griffin,US,Griffin,2007 N Expy,33.28714,-84.29196
1675037245442,Wine Valley Lodge,US,Napa,200 S Coombs St,38.283329,-122.288533
1692217114624,Best Western Plus-seaport Inn,US,New York,33 Peck,40.70806,-74.00145
1709396983808,Durango Travelodge,US,Durango,2970 Main Ave,37.295963,-107.872714
1717986918402,Melia Paris Notre Dame,FR,Paris,7 Rue De L h tel Colbert 5th arr 75005 Paris France,48.8515198,2.3486511
1717986918407,UNA Hotel Century,IT,Milan,Via Fabio Filzi 25 B Central Station 20124 Milan Italy,45.4841371,9.2001623
1726576852998,Hampton by Hilton Amsterdam Centre East,NL,Amsterdam,Panama Laan 188 196 Zeeburg 1019 AZ Amsterdam Netherlands,52.3714428,4.9346331
1735166787587,K K Palais Hotel,AT,Vienna,Rudolfsplatz 11 01 Innere Stadt 1010 Vienna Austria,48.2138096,16.3714293
1743756722176,Millennium Hotel Paris Opera,FR,Paris,12 Boulevard Haussmann 9th arr 75009 Paris France,48.8724588,2.3378004
1743756722181,Ch teau Monfort Relais Ch teaux,IT,Milan,Corso Concordia 1 Milan City Center 20129 Milan Italy,45.4682358,9.2073799
1752346656769,Hotel La Lanterne,FR,Paris,12 rue de la Montagne Sainte Genevi ve 5th arr 75005 Paris France,48.8489839,2.348383
1752346656772,Hotel Sans Souci Wien,AT,Vienna,Burggasse 2 07 Neubau 1070 Vienna Austria,48.204576,16.3563661
1752346656777,Hotel Portello Gruppo Minihotel,IT,Milan,Via G Silva 12 Fiera Milano City 20149 Milan Italy,45.4802503,9.1494925
1760936591364,Maison Albar Hotel Paris C line,FR,Paris,23 25 rue de Pont Neuf 1st arr 75001 Paris France,48.8606187,2.344401
1760936591368,Renaissance Paris Le Parc Trocadero Hotel,FR,Paris,55 57 Avenue Raymond Poincare 16th arr 75016 Paris France,48.8673099,2.2856528
1769526525953,Best Western Mornington Hotel Hyde Park,GB,Paddington,12 Lancaster Gate Lancaster Gate Westminster Borough London W2 3LG United Kingdom,51.5119933,-0.1782794
1769526525959,Hilton Diagonal Mar Barcelona,ES,Barcelona,Passeig del Taulat 262 264 Sant Mart 08019 Barcelona Spain,41.4084334,2.2178205
1778116460545,Covent Garden Hotel,GB,London,10 Monmouth Street Camden London WC2H 9HB United Kingdom,51.5145986,-0.1270336
1778116460550,Hotel Johann Strauss,AT,Vienna,Favoritenstra e 12 04 Wieden 1040 Vienna Austria,48.1949694,16.3692624
1786706395136,Hotel Dupond Smith,FR,Paris,2 rue des Guillemites 4th arr 75004 Paris France,48.857898,2.3571978
1786706395141,Suite Hotel 900 m zur Oper,AT,Vienna,Wiedner Hauptstra e 44 04 Wieden 1040 Vienna Austria,48.1935235,16.3669145
1795296329733,Hotel Barcelona Universal,ES,Barcelona,Avinguda Paral lel 76 78 Ciutat Vella 08001 Barcelona Spain,41.375237,2.1684058
1803886264322,Shaftesbury Hyde Park International,GB,London,52 56 Inverness Terrace Westminster Borough London W2 3LB United Kingdom,51.5123968,-0.186124
1803886264327,Apex City Of London Hotel,GB,London,No 1 Seething Lane City of London London EC3N 4AX United Kingdom,51.5104624,-0.0795502
1803886264328,Hotel Vilamar,ES,Barcelona,Vilamari 34 36 Eixample 08015 Barcelona Spain,41.3766732,2.1524478
1812476198916,Hilton Barcelona,ES,Barcelona,Avenida Diagonal 589 591 Les Corts 08014 Barcelona Spain,41.388682,2.1316368
1812476198921,Hotel Silver,IT,Milan,Via Riccardo Lombardi 9 11 20153 Milan Italy,45.4589731,9.0687506
1829656068096,Park Plaza County Hall London,GB,London,1 Addington Street Lambeth London SE1 7RY United Kingdom,51.5014001,-0.1160092
1829656068101,Senator Hotel Vienna,AT,Vienna,Hernalser Hauptstra e 105 17 Hernals 1170 Vienna Austria,48.2195864,16.3255339
1838246002689,Mercure Paris Porte d Orleans,FR,Paris,13 Rue Fran ois Ory 92120 Paris France,48.8178079,2.3293636
1846835937283,Duquesa de Cardona,ES,Barcelona,Passeig Colom 12 Ciutat Vella 08002 Barcelona Spain,41.3798658,2.1805271
1855425871874,Hotel Balmes,ES,Barcelona,Mallorca 216 Eixample 08008 Barcelona Spain,41.3910621,2.1593373
1864015806464,Maxim Op ra,FR,Paris,13 rue Geoffroy Marie 9th arr 75009 Paris France,48.8738557,2.3444232
1864015806469,Hotel Les Bains Paris,FR,Paris,7 Rue Du Bourg L abb 3rd arr 75003 Paris France,48.863828,2.3519345
1864015806474,Arthotel ANA Boutique Six,AT,Vienna,Webgasse 23 06 Mariahilf 1060 Vienna Austria,48.1941905,16.3462578
1872605741060,Hotel Ciutadella Barcelona,ES,Barcelona,Avenida Marqu s de l Argentera 4 Ciutat Vella 08003 Barcelona Spain,41.3837583,2.1846933
1881195675651,H tel De Sers Champs Elys es Paris,FR,Paris,41 Avenue Pierre 1er de Serbie 8th arr 75008 Paris France,48.8683593,2.3002117
1889785610240,Hotel Panache,FR,Paris,1 rue Geoffroy Marie 9th arr 75009 Paris France,48.8732543,2.343239
1889785610245,La Clef Tour Eiffel,FR,Paris,83 avenue Kl ber 16th arr 75016 Paris France,48.8647019,2.2886425
1898375544832,Windermere Hotel,GB,London,142 To 144 Warwick Way Victoria Westminster Borough London SW1V 4JE United Kingdom,51.4903724,-0.1459218
1898375544837,Hotel Lombardia,IT,Milan,Viale Lombardia 74 76 Citt Studi 20131 Milan Italy,45.4872511,9.2237385
1906965479428,Hotel West End,FR,Paris,7 rue Cl ment Marot 8th arr 75008 Paris France,48.8671391,2.3038447
1915555414019,Mercure Vienna First,AT,Vienna,Desider Friedmann Platz 2 01 Innere Stadt 1010 Vienna Austria,48.2114567,16.3738677
1924145348609,Little Palace Hotel,FR,Paris,4 rue Salomon de Caus 3rd arr 75003 Paris France,48.8675674,2.3539896
1932735283203,Petit Palais Hotel De Charme,IT,Milan,Via Molino Delle Armi 1 Angolo Corso Italia Milan City Center 20123 Milan Italy,45.4559784,9.1871812
1941325217796,Royal Passeig de Gracia,ES,Barcelona,Passeig de Gracia 84 Eixample 08008 Barcelona Spain,41.3946775,2.162638
1949915152386,Hotel Le Squara,FR,Paris,3 rue Lepic 18th arr 75018 Paris France,48.884165,2.3328261
1958505086979,Ofelias Hotel 4 Sup,ES,Barcelona,Llan 24 Eixample 08015 Barcelona Spain,41.3957584,2.1822402
1967095021571,Vienna Sporthotel,AT,Vienna,Baumgasse 83 03 Landstra e 1030 Vienna Austria,48.191373,16.4082294
1975684956161,Le Tourville Eiffel,FR,Paris,16 avenue de Tourville 7th arr 75007 Paris France,48.8542681,2.3078116
1975684956166,Hotel Spa La Belle Juliette,FR,Paris,92 Rue Du Cherche Midi 6th arr 75006 Paris France,48.8474426,2.3223783
1984274890753,Hilton London Olympia,GB,London,380 Kensington High Street Kensington and Chelsea London W14 8NL United Kingdom,51.4967399,-0.2064723
1992864825344,Monhotel Lounge SPA,FR,Paris,1 3 Rue d Argentine 16th arr 75116 Paris France,48.8743481,2.2897334
1992864825349,Das Opernring Hotel,AT,Vienna,Opernring 11 01 Innere Stadt 1010 Vienna Austria,48.2026449,16.3671054
2001454759938,Park Plaza London Park Royal,GB,London,628 Western Avenue London W3 0TA United Kingdom,51.527262,-0.282992
2001454759943,Hotel Serhs Rivoli Rambla,ES,Barcelona,La Rambla 128 Ciutat Vella 08002 Barcelona Spain,41.3843222,2.1712893
2001454759945,Amsterdam Canal Residence,NL,Amsterdam,Weteringschans 251 Amsterdam City Center 1017 XJ Amsterdam Netherlands,52.3594783,4.895853
2010044694532,H tel De Castiglione,FR,Paris,38 Rue Du Faubourg Saint Honore 8th arr 75008 Paris France,48.8691758,2.3205807
2018634629122,H tel Paris Bastille Boutet MGallery by Sofitel,FR,Paris,22 24 Rue Faidherbe 11th arr 75011 Paris France,48.8519215,2.3839993
2018634629126,Pertschy Palais Hotel,AT,Vienna,Habsburgergasse 5 01 Innere Stadt 1010 Vienna Austria,48.2082256,16.3684123
2027224563712,Le Mathurin Hotel Spa,FR,Paris,43 Rue des Mathurins 8th arr 75008 Paris France,48.8732068,2.3239015
2027224563717,IH Hotels Milano Ambasciatori,IT,Milan,Galleria Del Corso 3 Milan City Center 20122 Milan Italy,45.4644348,9.1952727
2027224563719,Eurostars Bcn Design,ES,Barcelona,Passeig de Gr cia 29 Eixample 08007 Barcelona Spain,41.3907208,2.1660732
2035814498304,Arbor City,GB,London,12 Osborn Street Aldgate East Tower Hamlets London E1 6TE United Kingdom,51.5166755,-0.0697897
2044404432896,Grand Royale London Hyde Park,GB,London,1 Inverness Terrace Westminster Borough London W2 3JP United Kingdom,51.5109945,-0.1863417
2044404432900,Timhotel Op ra Blanche Fontaine,FR,Paris,34 Rue Fontaine 9th arr 75009 Paris France,48.8825781,2.3334805
2044404432905,Hotel Well and Come,ES,Barcelona,Girona 158 Eixample 08037 Barcelona Spain,41.3991773,2.1656134
2061584302082,NH Hesperia Barcelona Presidente,ES,Barcelona,Avenida Diagonal 570 Sarri St Gervasi 08021 Barcelona Spain,41.3941338,2.1489569
2070174236673,Goodenough Club,GB,London,23 Mecklenburgh Square Camden London WC1N 2AD United Kingdom,51.525535,-0.1180354
2078764171268,Hilton Vienna Plaza,AT,Vienna,Schottenring 11 01 Innere Stadt 1010 Vienna Austria,48.2155236,16.3646858
2087354105859,The Waldorf Hilton,GB,London,Aldwych Westminster Borough London WC2B 4DD United Kingdom,51.5131979,-0.1174504
2095944040454,Lancaster London,GB,Paddington,Lancaster Terrace Westminster Borough London W2 2TY United Kingdom,51.5119446,-0.179939
2104533975042,41,GB,London,41 Buckingham Palace Road Westminster Borough London SW1W 0PS United Kingdom,51.4981471,-0.1436492
2113123909632,Le 123 Elysees Astotel,FR,Paris,123 Rue Du Faubourg Saint Honor 8th arr 75008 Paris France,48.8730823,2.309659
2113123909637,Savoy Hotel Amsterdam,NL,Amsterdam,Ferdinand Bolstraat 194 Oud Zuid 1072 LW Amsterdam Netherlands,52.3497431,4.8911908
2121713844227,Grand Hotel Downtown,NL,Amsterdam,Eerste Constantijn Huygensstraat 10A Oud West 1054 BR Amsterdam Netherlands,52.36513,4.8729422
2121713844230,UNA Hotel Scandinavia,IT,Milan,Via Giovanni Battista Fauch Sempione 20154 Milan Italy,45.4859983,9.1637603
2130303778820,Mercer House B ria BCN,ES,Barcelona,Boria 24 26 Ciutat Vella 08003 Barcelona Spain,41.3846844,2.1791065
2138893713409,Ambassadors Bloomsbury,GB,London,12 Upper Woburn Place Camden London WC1H 0HX United Kingdom,51.5266618,-0.1296571
2138893713412,Hotel Principe Di Savoia,IT,Milan,Piazza Della Repubblica 17 Central Station 20124 Milan Italy,45.479888,9.1962982
2147483648003,Eurohotel Diagonal Port,ES,Barcelona,Lope de Vega 4 Sant Mart 08005 Barcelona Spain,41.4006708,2.2087844
2156073582594,Hotel Chavanel,FR,Paris,22 Rue Tronchet 8th arr 75008 Paris France,48.8721692,2.3262681
2156073582597,AC Hotel Paris Porte Maillot by Marriott,FR,Paris,6 rue Gustave Charpentier 17th arr 75017 Paris France,48.8820046,2.2818538
2164663517184,Select Hotel,FR,Paris,1 Place De La Sorbonne 5th arr 75005 Paris France,48.8483053,2.3425596
2164663517190,Hotel Le Sainte Beuve,FR,Paris,9 Rue Sainte Beuve 6th arr 75006 Paris France,48.8438998,2.3294858
2173253451779,H tel Bel Ami,FR,Paris,7 11 Rue Saint Benoit 6th arr 75006 Paris France,48.8550298,2.3332104
2181843386370,Renaissance Paris Arc de Triomphe Hotel,FR,Paris,39 Avenue de Wagram 17th arr 75017 Paris France,48.8772093,2.2968266
2181843386373,Hotel Eug ne en Ville,FR,Paris,6 rue Buffault 9th arr 75009 Paris France,48.8750119,2.3416769
2181843386378,Hotel Carrobbio,IT,Milan,Via Medici 3 Milan City Center 20123 Milan Italy,45.4606597,9.1810947
2190433320963,Le Belmont Champs Elys es,FR,Paris,30 Rue de Bassano 16th arr 75016 Paris France,48.8691984,2.2979052
2190433320967,Austria Trend Hotel Doppio Wien,AT,Vienna,Rennweg 99 Rinnboeckstrasse 1 03 Landstra e 1030 Vienna Austria,48.1854312,16.404884
2199023255555,Hotel De Vigny,FR,Paris,9 11 rue Balzac 8th arr 75008 Paris France,48.8738672,2.3005894
2207613190148,Negresco Princess 4 Sup,ES,Barcelona,Roger de Lluria 16 18 Eixample 08010 Barcelona Spain,41.3905166,2.1725643
2216203124740,Mercure Hotel Amsterdam City South,NL,Amsterdam,Joan Muyskenweg 10 Oost 1096 CJ Amsterdam Netherlands,52.335182,4.9138688
2233382993923,Le Saint Hotel Paris,FR,Paris,3 rue du Pr aux Clercs 7th arr 75007 Paris France,48.8565421,2.3303504
2241972928513,Hotel Indigo London Tower Hill,GB,London,142 Minories City of London London EC3N 1LS United Kingdom,51.5128032,-0.07586
2250562863105,Park Grand London Hyde Park,GB,London,78 82 Westbourne Terrace Westminster Borough London W2 6QA United Kingdom,51.5157316,-0.1802179
2259152797697,Le Pavillon des Lettres,FR,Paris,12 rue des Saussaies 8th arr 75008 Paris France,48.8713699,2.3181191
2259152797701,Crowne Plaza London Docklands,GB,London,Royal Victoria Dock Western Gateway Newham London E16 1AL United Kingdom,51.5083537,0.0198855
2267742732289,Best Western Seraphine Kensington Olympia,GB,London,225 High Street Kensington Kensington and Chelsea London W8 6SA United Kingdom,51.4992791,-0.1973593
2267742732294,Balmoral Champs Elys es,FR,Paris,6 rue du General Lanrezac 17th arr 75017 Paris France,48.8759855,2.293938
2267742732296,Mercure London Bridge,GB,London,71 79 Southwark Street Southwark London SE1 0JA United Kingdom,51.5052587,-0.099176
2276332666880,Le Pradey,FR,Paris,5 Rue Saint Roch 1st arr 75001 Paris France,48.8645309,2.3315532
2284922601472,Le Senat,FR,Paris,10 rue de Vaugirard 6th arr 75006 Paris France,48.8491427,2.3397118
2284922601477,St Pancras Renaissance Hotel London,GB,London,Euston Road Camden London NW1 2AR United Kingdom,51.5267769,-0.1324905
2284922601482,Hotel Prinz Eugen,AT,Vienna,Wiedner G rtel 14 04 Wieden 1040 Vienna Austria,48.1877258,16.3781454
2293512536070,London Marriott Hotel Grosvenor Square,GB,London,Grosvenor Square Westminster Borough London W1K 6JP United Kingdom,51.511579,-0.1500193
2293512536075,The Ned,GB,London,Poultry 27 City of London London EC2R 8AJ United Kingdom,51.5135929,-0.0907833
2302102470660,Hotel Monge,FR,Paris,55 rue Monge 5th arr 75005 Paris France,48.8447938,2.3524462
2302102470664,Jaz Amsterdam,NL,Amsterdam Zuidoost,De Passage 90 Noord Holland Zuidoost 1101 AX Amsterdam Netherlands,52.314371,4.9388064
2310692405249,Park Plaza London Waterloo,GB,London,6 Hercules Road Lambeth London SE1 7DP United Kingdom,51.4982412,-0.1134715
2310692405256,NH Amsterdam Schiller,NL,Amsterdam,Rembrandtplein 26 36 Amsterdam City Center 1017 CV Amsterdam Netherlands,52.3657092,4.8966912
2319282339841,Hotel Mademoiselle,FR,Paris,7 Rue des Petits H tels 10th arr 75010 Paris France,48.8772493,2.3543043
2319282339846,The Ritz Carlton Vienna,AT,Vienna,Schubertring 5 7 01 Innere Stadt 1010 Vienna Austria,48.2022742,16.3762615
2327872274433,The One Barcelona GL,ES,Barcelona,277 Carrer de Proven a Eixample 08037 Barcelona Spain,41.3961448,2.1631674
2327872274438,Sunotel Club Central,ES,Barcelona,Valencia 157 Eixample 08011 Barcelona Spain,41.38793,2.1568061
2336462209029,Hotel Villa Saxe Eiffel,FR,Paris,9 Villa de Saxe 7th arr 75007 Paris France,48.849758,2.3095213
2336462209034,Hotel Pension Baron am Schottentor,AT,Vienna,W hringer Stra e 12 09 Alsergrund 1090 Vienna Austria,NA,NA
2345052143620,Novotel London Excel,GB,London,7 Western Gateway Royal Victoria Dock Newham London E16 1AA United Kingdom,51.5077198,0.0229805
2345052143625,The Berkeley,GB,London,Wilton Place Knightsbridge Westminster Borough London SW1X 7RL United Kingdom,51.5020912,-0.1577795
2353642078212,Ohla Eixample,ES,Barcelona,C rsega 289 Eixample 08008 Barcelona Spain,41.3944574,2.1564353
2362232012800,Hilton Paris Opera,FR,Paris,108 Rue Saint Lazare 8th arr 75008 Paris France,48.8756604,2.3252075
2362232012805,Hotel Bellevue Wien,AT,Vienna,Althanstra e 5 09 Alsergrund 1090 Vienna Austria,48.2264063,16.3600628
2370821947392,Belfast,FR,Paris,10 avenue Carnot 17th arr 75017 Paris France,48.8756435,2.2938788
2370821947396,Plaza Tour Eiffel,FR,Paris,32 Rue Greuze 16th arr 75016 Paris France,48.8645647,2.2821827
2370821947401,Hotel The Serras,ES,Barcelona,Passeig de Colom 9 Ciutat Vella 08002 Barcelona Spain,41.3801815,2.180688
2379411881987,Barcelona Princess,ES,Barcelona,Avenida Diagonal 1 Sant Mart 08019 Barcelona Spain,41.4109715,2.2186535
2379411881988,NH Collection Barcelona Podium,ES,Barcelona,Bail n 4 6 Eixample 08010 Barcelona Spain,NA,NA
2388001816576,11 Cadogan Gardens,GB,London,11 Cadogan Gardens Sloane Square Kensington and Chelsea London SW3 2RJ United Kingdom,51.4936161,-0.1592347
2388001816581,Best Western Plus 61 Paris Nation Hotel,FR,Paris 12,61 rue de la Voute 12th arr 75012 Paris France,48.8465653,2.4102405
2396591751169,Hotel des Tuileries Relais du Silence,FR,Paris,10 rue Saint Hyacinthe 1st arr 75001 Paris France,48.8661705,2.331561
2396591751174,NH Collection Barcelona Gran Hotel Calder n,ES,Barcelona,Rambla Catalunya 26 Eixample 08007 Barcelona Spain,41.3894654,2.1662651
2405181685763,DoubleTree By Hilton Milan,IT,Milan,Via Ludovico Di Breme 77 Certosa 20156 Milan Italy,45.5005657,9.1383663
2413771620353,Comfort Inn Suites Kings Cross St Pancras,GB,London,31 33 Argyle Street Camden London WC1H 8EP United Kingdom,51.5289499,-0.1232979
2413771620358,Bianca Maria Palace Hotel,IT,Milan,Viale Bianca Maria 4 Milan City Center 20129 Milan Italy,45.4635445,9.2068649
2422361554949,Hotel Die Port van Cleve,NL,Amsterdam,Nieuwezijds Voorburgwal 176 180 Amsterdam City Center 1012 SJ Amsterdam Netherlands,52.3741426,4.8907741
2430951489539,H tel La Parizienne by Elegancia,FR,Paris 06,33 Boulevard du Montparnasse 6th arr 75006 Paris France,48.8450894,2.3209503
2439541424128,London Hilton on Park Lane,GB,London,22 Park Lane Westminster Borough London W1K 1BE United Kingdom,51.5055513,-0.1501698
2448131358721,St Martins Lane A Morgans Original,GB,London,45 St Martin s Lane Westminster Borough London WC2N 4HX United Kingdom,51.5104696,-0.1265824
2448131358725,Grand Hotel Wien,AT,Vienna,K rntner Ring 9 01 Innere Stadt 1010 Vienna Austria,48.2021105,16.3720841
2465311227904,Best Western Le Jardin de Cluny,FR,Paris,9 Rue du Sommerard 5th arr 75005 Paris France,48.8497553,2.3467616
2473901162496,Le Metropolitan a Tribute Portfolio Hotel,FR,Paris,10 Place De Mexico 16th arr 75016 Paris France,48.8656973,2.2829776
2482491097088,The Nadler Victoria,GB,London,10 Palace Place Westminster Borough London SW1E 5BW United Kingdom,51.4990259,-0.1427453
2482491097093,Hotel Granados 83,ES,Barcelona,Enrique Granados 83 Eixample 08008 Barcelona Spain,41.391843,2.156844
2482491097097,Hotel Balmoral,ES,Barcelona,Via Augusta 5 08006 Barcelona Spain,41.3961294,2.1551626
2491081031684,Flemings Mayfair,GB,London,Half Moon Street Westminster Borough London W1J 7BH United Kingdom,51.5064607,-0.1454198
2499670966276,Nell Hotel Suites,FR,Paris,60 rue Richer 9th arr 75009 Paris France,48.8741002,2.3426357
2499670966279,Hotel D Este,IT,Milan,Viale Bligny 23 Milan City Center 20136 Milan Italy,45.4510397,9.1920911
2508260900868,Primero Primera,ES,Barcelona,Doctor Carulla 25 Sarri St Gervasi 08017 Barcelona Spain,41.4002812,2.1297427
2516850835458,Seven Hotel,FR,Paris,20 rue Berthollet 5th arr 75005 Paris France,48.8389823,2.3455528
2516850835462,Hotel Liberty,IT,Milan,Viale Bligny 56 Milan City Center 20136 Milan Italy,45.4508673,9.1948659
2525440770052,Cotton House Hotel Autograph Collection,ES,Barcelona,Gran V a de les Corts Catalanes 670 Eixample 08010 Barcelona Spain,41.3915897,2.1720108
2534030704642,Mercer Hotel Barcelona,ES,Barcelona,Dels Lledo 7 Ciutat Vella 08003 Barcelona Spain,41.3827,2.1791999
2534030704647,AZIMUT Hotel Vienna,AT,Vienna,Sonnwendgasse 8 10 Favoriten 1100 Vienna Austria,48.1834787,16.3762765
2551210573825,The Victoria,GB,London,10 West Temple Sheen London SW14 7RT United Kingdom,51.4611219,-0.2756216
2551210573830,Novotel Amsterdam City,NL,Amsterdam,Europaboulevard 10 Zuideramstel 1083 AD Amsterdam Netherlands,52.333803,4.8884708
2559800508419,Mercure Vaugirard Paris Porte De Versailles,FR,Paris,69 Boulevard Victor 15th arr 75015 Paris France,48.8330649,2.2879617
2568390443011,Hilton London Euston,GB,London,17 18 Upper Woburn Place Camden London WC1H 0HT United Kingdom,51.5265189,-0.1303689
2568390443014,Novotel Paris Les Halles,FR,Paris,8 Place Marguerite de Navarre 1st arr 75001 Paris France,48.8607299,2.3465326
2576980377601,Roomz Vienna,AT,Vienna,Paragonstra e 1 11 Simmering 1110 Vienna Austria,NA,NA
2585570312195,Warwick Paris Former Warwick Champs Elysees,FR,Paris,5 rue de Berri 8th arr 75008 Paris France,48.8722019,2.3030866
2585570312198,Chambiges Elys es,FR,Paris,8 rue Chambiges 8th arr 75008 Paris France,48.8668048,2.3039465
2594160246785,Best Western S vres Montparnasse,FR,Paris,153 Rue De Vaugirard 15th arr 75015 Paris France,48.843707,2.3155631
2602750181376,Hotel Trianon Rive Gauche,FR,Paris,1 Bis Rue De Vaugirard 6th arr 75006 Paris France,48.8487675,2.3410376
2602750181378,Old Ship Inn Hackney,GB,London,2 Sylvester Path Hackney London E8 1EN United Kingdom,51.5458476,-0.0554113
2602750181383,United Lodge Hotel and Apartments,GB,London,368 370 Green Lanes London N4 1DA United Kingdom,51.5743549,-0.0977567
2611340115968,Park Plaza Victoria London,GB,London,239 Vauxhall Bridge Road Westminster Borough London SW1V 1EQ United Kingdom,51.4942539,-0.1414756
2619930050560,Royal Saint Honore,FR,Paris,221 Rue Saint Honore 1st arr 75001 Paris France,48.8658792,2.3298903
2628519985155,Le Relais Montmartre,FR,Paris,6 Rue Constance 18th arr 75018 Paris France,48.8854538,2.3335809
2628519985159,Holiday Inn Amsterdam,NL,Amsterdam,De Boelelaan 2 Zuideramstel 1083 HJ Amsterdam Netherlands,52.3351951,4.8885354
2637109919746,St James Hotel Club Mayfair,GB,London,7 8 Park Place Westminster Borough London SW1A 1LP United Kingdom,51.5061587,-0.1402803
2645699854337,H tel F licien by Elegancia,FR,Paris,21 rue F licien David 16th arr 75016 Paris France,48.8493082,2.2743626
2645699854339,Grange Wellington Hotel,GB,London,71 Vincent Square Westminster Borough London SW1P 2PA United Kingdom,51.4944319,-0.1363756
2662879723520,Okko Hotels Paris Porte De Versailles,FR,Paris,2 Rue du Colonel Pierre Avia 15th arr 75015 Paris France,48.8327729,2.2787597
2662879723525,Hotel V Nesplein,NL,Amsterdam,Nes 49 Amsterdam City Center 1012 KD Amsterdam Netherlands,52.3711037,4.8936787
2671469658112,H tel des Academies et des Arts,FR,Paris,15 Rue De La Grande Chaumi re 6th arr 75006 Paris France,48.8420669,2.3304091
2680059592705,Hotel VIU Milan,IT,Milan,6 Via Aristotile Fioravanti Garibaldi Station 20154 Milan Italy,45.488764,9.183057
2680059592710,Starhotels Echo,IT,Milan,Viale Andrea Doria 4 Central Station 20124 Milan Italy,45.4847398,9.2072916
2688649527298,Platine Hotel Spa,FR,Paris,20 rue de l Ing nieur Robert Keller 15th arr 75015 Paris France,48.8473459,2.2832408
2688649527303,Washington Mayfair Hotel,GB,London,5 Curzon St Westminster Borough London W1J 5HL United Kingdom,51.5060237,-0.151078
2705829396480,Portobello House,GB,London,225 Ladbroke Grove Kensington and Chelsea London W10 6HQ United Kingdom,51.5199224,-0.2116636
2705829396485,Arioso,FR,Paris,7 rue d Argenson 8th arr 75008 Paris France,48.8746066,2.3167195
2723009265664,Melia Paris Champs Elys es,FR,Paris,102 Avenue Victor Hugo 16th arr 75016 Paris France,48.8688962,2.2827459
2723009265669,Renaissance Amsterdam Hotel,NL,Amsterdam,Kattengat 1 Amsterdam City Center 1012 SZ Amsterdam Netherlands,52.377955,4.894641
2731599200257,Novotel Paris Centre Bercy,FR,Paris,85 Rue De Bercy 12th arr 75012 Paris France,48.8384558,2.3805885
2740189134849,Best Western Op ra Batignolles,FR,Paris,165 rue de Rome 17th arr 75017 Paris France,48.8870573,2.3143297
2740189134854,The Dylan Amsterdam,NL,Amsterdam,Keizersgracht 384 Amsterdam City Center 1016 GB Amsterdam Netherlands,52.3654686,4.8798713
2748779069441,H tel Westminster,FR,Paris,13 Rue De La Paix 2nd arr 75002 Paris France,48.8693409,2.3310263
2748779069446,NH Carlton Amsterdam,NL,Amsterdam,Vijzelstraat 4 Amsterdam City Center 1017 HK Amsterdam Netherlands,52.3663727,4.8930505
2765958938624,Staybridge Suites London Vauxhall,GB,London,100 Vauxhall Walk Lambeth London SE11 5AL United Kingdom,51.4891226,-0.1205639
2765958938628,Hotel Eiffel Blomet,FR,Paris,78 Rue Blomet 15th arr 75015 Paris France,48.8416787,2.3022862
2774548873217,Mercure Paris Gare Montparnasse,FR,Paris,20 Rue De La Ga t 14th arr 75014 Paris France,NA,NA
2783138807809,Hotel Le Placide Saint Germain Des Pr s,FR,Paris,6 Rue Saint Placide 6th arr 75006 Paris France,48.8498439,2.3244253
2783138807811,Hotel OFF Paris Seine,FR,Paris,86 Quai D Austerlitz 13th arr 75013 Paris France,48.8427364,2.3672171
2783138807816,Hotel Da Vinci,IT,Milan,Via Senigallia 6 20161 Milan Italy,45.5331372,9.1711019
2800318676992,The Chamberlain,GB,London,130 135 Minories City of London London EC3N 1NU United Kingdom,51.5122457,-0.0757326
2800318676997,Hilton Amsterdam,NL,Amsterdam,Apollolaan 138 Oud Zuid 1077 BG Amsterdam Netherlands,52.351381,4.872723
2808908611584,Crowne Plaza London Kings Cross,GB,London,1 Kings Cross Road Islington London WC1X 9HX United Kingdom,51.5263854,-0.1136042
2817498546177,Villa Opera Drouot,FR,Paris,2 rue Geoffroy Marie 9th arr 75009 Paris France,48.8732231,2.3436097
2817498546182,Silken Concordia,ES,Barcelona,Paral lel 115 Sants Montju c 08004 Barcelona Spain,41.3747873,2.1611846
2826088480773,Exe Vienna,AT,Vienna,Ottakringer Stra e 34 36 17 Hernals 1170 Vienna Austria,48.2149414,16.3365285
2826088480778,Ca Bianca Hotel Corte Del Naviglio,IT,Milan,Via Lodovico Il Moro 117 Navigli 20143 Milan Italy,45.443502,9.1377081
2834678415366,Amadi Park Hotel,NL,Amsterdam,Eerste Constantijn huygensstraat 26G Oud West 1054 BR Amsterdam Netherlands,52.364962,4.873495
2843268349955,Barcel Sants,ES,Barcelona,Plaza Paisos Catalans s n Sants Montju c 08014 Barcelona Spain,41.3798964,2.1412433
2851858284547,Legend Saint Germain by Elegancia,FR,Paris,151 bis Rue de Rennes 6th arr 75006 Paris France,48.8453774,2.3256427
2851858284552,Newhotel Roblin,FR,Paris,6 rue Chauveau Lagarde 8th arr 75008 Paris France,48.8714152,2.3239679
2860448219139,Strand Palace Hotel,GB,London,372 Strand Westminster Borough London WC2R 0JJ United Kingdom,51.5110993,-0.1208673
2869038153732,Mercure Secession Wien,AT,Vienna,Getreidemarkt 5 06 Mariahilf 1060 Vienna Austria,48.200561,16.3647063
2886218022913,Holiday Inn Paris Saint Germain des Pr s,FR,Paris,92 rue de Vaugirard 6th arr 75006 Paris France,48.846837,2.3258066
2894807957504,COQ Hotel Paris,FR,Paris,15 rue Edouard Manet 13th arr 75013 Paris France,48.8328764,2.3572531
2911987826688,InterContinental London Park Lane,GB,London,1 Hamilton Place Park Lane Westminster Borough London W1J 7QY United Kingdom,51.5038632,-0.1504132
2911987826693,NH Amsterdam Museum Quarter,NL,Amsterdam,Hobbemakade 50 Oud Zuid 1071 XL Amsterdam Netherlands,52.3560923,4.8858229
2920577761282,Hotel Malte Astotel,FR,Paris,63 rue de Richelieu 2nd arr 75002 Paris France,48.8672474,2.33738
2929167695872,M by Montcalm Shoreditch London Tech City,GB,London,151 157 City Road Shoreditch Islington London EC1V 1JS United Kingdom,51.5278465,-0.0889473
2929167695877,UNA Hotel Cusani,IT,Milan,Via Cusani 13 Milan City Center 20121 Milan Italy,45.4684251,9.1834161
2937757630465,Castille Paris Starhotels Collezione,FR,Paris,33 Rue Cambon 1st arr 75001 Paris France,48.8682978,2.3268027
2946347565057,H tel Bedford,FR,Paris,17 rue de l Arcade 8th arr 75008 Paris France,48.8720593,2.3236802
2954937499649,Hotel Plaza Elys es,FR,Paris,177 Boulevard Haussmann 8th arr 75008 Paris France,48.8746128,2.3056956
2954937499653,Suites H tel Helzear Montparnasse,FR,Paris,40 rue Liancourt 14th arr 75014 Paris France,48.8346811,2.3255098
2954937499658,Hotel Capricorno,AT,Vienna,Schwedenplatz 3 4 01 Innere Stadt 1010 Vienna Austria,48.2111522,16.3788631
2972117368832,H tel Th r se,FR,Paris,5 7 Rue Th r se 1st arr 75001 Paris France,48.8816306,2.2992146
2980707303425,The Franklin Hotel Starhotels Collezione,GB,London,24 Egerton Gardens Kensington and Chelsea London SW3 2DB United Kingdom,51.4960283,-0.1686355
2980707303434,W Barcelona,ES,Barcelona,Pla a Rosa dels Vents 1 Passeig Joan de Borbo Ciutat Vella 08039 Barcelona Spain,41.368437,2.1901534
2989297238019,HCC Regente,ES,Barcelona,Rambla de Catalunya 76 Eixample 08008 Barcelona Spain,41.3922919,2.1622256
2997887172614,NH Milano Palazzo Moscova,IT,Milan,Viale Monte Grappa 12 Garibaldi Station 20124 Milan Italy,45.480968,9.189977
3006477107204,Hotel Bristol A Luxury Collection Hotel,AT,Vienna,K rntner Ring 1 01 Innere Stadt 1015 Vienna Austria,48.2024907,16.3702656
3015067041794,Antares Hotel Rubens,IT,Milan,Via Rubens 21 San Siro 20148 Milan Italy,45.4670579,9.1427822
3023656976388,Buddha Bar Hotel Paris,FR,Paris,4 rue d Anjou 8th arr 75008 Paris France,48.8694695,2.3208564
3032246910976,H tel San R gis,FR,Paris,12 Rue Jean Goujon 8th arr 75008 Paris France,48.8665788,2.3084447
3032246910983,Best Western Madison Hotel,IT,Milan,Via Privata Leopoldo Gasparotto 8 Central Station 20124 Milan Italy,45.4881471,9.2016609
3040836845572,Catalonia Catedral,ES,Barcelona,Arcs 10 Ciutat Vella 08002 Barcelona Spain,41.3846637,2.1740902
3049426780160,Hotel Scribe Paris Opera by Sofitel,FR,Paris,1 Rue Scribe 9th arr 75009 Paris France,48.8704175,2.3296832
3049426780165,The Beaufort,GB,London,33 Beaufort Gardens Kensington and Chelsea London SW3 1PP United Kingdom,51.4978466,-0.164156
3049426780170,Hotel Mozart,IT,Milan,Piazza Gerusalemme 6 Sempione 20154 Milan Italy,45.4834133,9.1666361
3058016714752,The Marylebone Hotel,GB,London,47 Welbeck Street Westminster Borough London W1G 8DN United Kingdom,51.5180207,-0.1500567
3066606649347,The Tophams Hotel,GB,London,28 Ebury Street Westminster Borough London SW1W 0LU United Kingdom,51.4957436,-0.1477528
3066606649352,Grand Ferdinand Vienna Your Hotel In The City Center,AT,Vienna,Schubertring 10 12 01 Innere Stadt 1010 Vienna Austria,48.2022415,16.3749336
3075196583936,Le Dokhan s a Tribute Portfolio Hotel,FR,Paris,117 Rue Lauriston 16th arr 75116 Paris France,48.8663359,2.2867935
3075196583941,Silken Gran Hotel Havana,ES,Barcelona,Gran V a de Les Corts Catalanes 647 Eixample 08010 Barcelona Spain,41.3927101,2.1722139
3083786518531,Grosvenor House Suites by Jumeirah Living,GB,London,86 Park Lane Westminster Borough London W1K 7TN United Kingdom,51.509841,-0.1552193
3092376453122,Holiday Inn Paris Notre Dame,FR,Paris,4 rue Danton 6th arr 75006 Paris France,48.8528427,2.3422256
3100966387712,H tel Chaplain Paris Rive Gauche,FR,Paris,11 Bis Rue Jules Chaplain 6th arr 75006 Paris France,48.8427564,2.3305636
3109556322304,H tel de Banville,FR,Paris,166 Boulevard Berthier 17th arr 75017 Paris France,48.8864673,2.2948911
3109556322309,The Piccadilly London West End,GB,London,65 73 Shaftesbury Avenue Westminster Borough London W1D 6EX United Kingdom,51.5121957,-0.1318384
3109556322312,Catalonia Diagonal Centro,ES,Barcelona,Balmes 142 146 Eixample 08008 Barcelona Spain,41.3938632,2.1568039
3118146256898,Radisson Blu Edwardian Bloomsbury Street,GB,London,9 13 Bloomsbury Street Nr Covent Garden Camden London WC1B 3QD United Kingdom,51.517608,-0.1276253
3126736191492,Le Burgundy Paris,FR,Paris,6 8 Rue Duphot 1st arr 75001 Paris France,48.8680055,2.3260075
3126736191497,Park Inn by Radisson Uno City Vienna,AT,Vienna,Wagramer Stra e 16 18 22 Donaustadt 1220 Vienna Austria,48.2340799,16.4210093
3143916060674,The Montcalm Marble Arch,GB,London,2 Wallenberg Place Westminster Borough London W1H 7TN United Kingdom,51.5150522,-0.159239
3143916060679,M venpick Hotel Amsterdam City Centre,NL,Amsterdam,Piet Heinkade 11 Zeeburg 1019 BR Amsterdam Netherlands,52.3781016,4.9142508
3152505995265,The Nadler Soho,GB,London,10 Carlisle Street Westminster Borough London W1D 3BR United Kingdom,51.5147387,-0.1341108
3152505995270,Auteuil Tour Eiffel,FR,Paris,8 10 Rue F licien David 16th arr 75016 Paris France,48.8506499,2.2750873
3161095929858,A La Villa Madame,FR,Paris,44 Rue Madame 6th arr 75006 Paris France,48.8488608,2.3315257
3169685864448,Duret,FR,Paris,30 Rue Duret 16th arr 75016 Paris France,48.8752553,2.286653
3169685864453,Novotel Milano Nord Ca Granda,IT,Milan,Viale Suzzani 13 Bicocca Zara 20162 Milan Italy,45.506502,9.1965192
3178275799043,Pestana Chelsea Bridge Hotel Spa,GB,London,354 Queenstown Road Battersea London SW8 4AE United Kingdom,51.4815995,-0.1481053
3178275799048,25hours Hotel beim MuseumsQuartier,AT,Vienna,Lerchenfelder Stra e 1 3 07 Neubau 1070 Vienna Austria,48.2064745,16.3546297
3186865733633,Waldorf Madeleine,FR,Paris,12 boulevard Malesherbes 8th arr 75008 Paris France,48.8715828,2.3224853
3186865733635,Golden Tulip Bercy Gare de Lyon 209,FR,Paris,209 211 rue de Charenton 12th arr 75012 Paris France,48.8393229,2.3892274
3186865733640,Alma Boutique Hotel,AT,Vienna,Hafnersteig 7 01 Innere Stadt 1010 Vienna Austria,48.2112491,16.3776519
3195455668226,Hotel Parco di Sch nbrunn Vienna,AT,Vienna,Ratschkygasse 32 12 Meidling 1120 Vienna Austria,48.1776236,16.3243588
3204045602818,Mandarin Oriental Paris,FR,Paris,251 rue Saint Honor 1st arr 75001 Paris France,48.8671889,2.326927
3204045602823,The Wittmore Adults Only,ES,Barcelona,Riudarenes 7 Ciutat Vella 08002 Barcelona Spain,41.380939,2.1796095
3212635537412,Luxury Suites Amsterdam,NL,Amsterdam,Oudeschans 75 Amsterdam City Center 1011 KW Amsterdam Netherlands,52.3702613,4.9032489
3221225472003,Francois 1er,FR,Paris,7 Rue Magellan 8th arr 75008 Paris France,48.8701887,2.2997281
3221225472008,Catalonia Barcelona Plaza,ES,Barcelona,Plaza Espa a 6 8 Sants Montju c 08014 Barcelona Spain,41.3750293,2.1491172
3229815406595,Olivia Balmes Hotel,ES,Barcelona,Balmes 117 Eixample 08008 Barcelona Spain,41.392095,2.158493
3238405341187,Le Relais M dicis,FR,Paris,5 place de l Od on 6th arr 75006 Paris France,48.8497618,2.3392336
3246995275777,Hotel Astra Opera Astotel,FR,Paris,29 rue Caumartin 9th arr 75009 Paris France,48.8718321,2.3278866
3255585210369,Hotel d Orsay Esprit de France,FR,Paris,93 Rue de Lille 7th arr 75007 Paris France,48.8603599,2.3230778
3255585210374,Hotel Regina,AT,Vienna,Rooseveltplatz 15 09 Alsergrund 1090 Vienna Austria,48.2163343,16.3595536
3264175144962,Holiday Inn London Mayfair,GB,London,3 Berkeley Street Westminster Borough London W1J 8NE United Kingdom,51.507746,-0.1422993
3264175144967,Hotel Erzherzog Rainer,AT,Vienna,Wiedner Hauptstr 27 29 04 Wieden 1040 Vienna Austria,48.1953229,16.3672882
3272765079553,Hotel Stendhal Place Vend me Paris MGallery by Sofitel,FR,Paris,22 Rue Danielle Casanova 1st arr 75002 Paris France,48.8681455,2.3313064
3281355014147,NH Barcelona Stadium,ES,Barcelona,Travessera de les Corts 150 152 Les Corts 08028 Barcelona Spain,41.3812574,2.1269078
3289944948740,Victoire Germain,FR,Paris,9 rue Gr goire de Tours 6th arr 75006 Paris France,48.853299,2.337993
3298534883331,H tel Amastan Paris,FR,Paris,34 rue Jean Mermoz 8th arr 75008 Paris France,48.8716831,2.3123759
3307124817922,H tel La Comtesse by Elegancia,FR,Paris,29 Avenue De Tourville 7th arr 75007 Paris France,48.853865,2.3072019
3315714752516,The Corner Hotel,ES,Barcelona,Mallorca 178 Eixample 08036 Barcelona Spain,41.3890578,2.1565948
3324304687107,The Cavendish London,GB,London,81 Jermyn Street Westminster Borough London SW1Y 6JF United Kingdom,51.5077459,-0.1378733
3324304687112,Hotel Capitol Milano,IT,Milan,Via Cimarosa 6 Fiera Milano City 20144 Milan Italy,45.4661781,9.1588367
3324304687115,Hotel Kaiserin Elisabeth,AT,Vienna,Weihburggasse 3 01 Innere Stadt 1010 Vienna Austria,48.2072348,16.372238
3332894621700,Four Seasons Hotel London at Park Lane,GB,London,Hamilton Place Park Lane Westminster Borough London W1J 7DR United Kingdom,51.504439,-0.149911
3341484556290,Col n Hotel Barcelona,ES,Barcelona,Avinguda Catedral 7 Ciutat Vella 08002 Barcelona Spain,41.3849613,2.1756666
3341484556291,Thistle Euston,GB,Fitzrovia,Cardington Street Euston Camden London NW1 2LP United Kingdom,51.5291423,-0.1372782
3350074490883,H tel Arvor Saint Georges,FR,Paris,8 rue Laferriere 9th arr 75009 Paris France,48.8785454,2.3384866
3358664425474,Hotel La Place,GB,London,17 Nottingham Place Westminster Borough London W1U 5LG United Kingdom,51.5215257,-0.1533039
3358664425479,H10 Urquinaona Plaza,ES,Barcelona,Pla a Urquinaona 2 Eixample 08010 Barcelona Spain,41.3892128,2.1726015
3367254360067,Hilton London Wembley,GB,London,Lakeside Way Brent London HA9 0BU United Kingdom,51.5576962,-0.2835263
3375844294660,Villa d Estr es,FR,Paris,17 rue g t le coeur 6th arr 75006 Paris France,48.8535089,2.3425787
3375844294665,Abba Sants,ES,Barcelona,Numancia 32 Sants Montju c 08029 Barcelona Spain,41.3825777,2.1400103
3384434229251,Holiday Inn Amsterdam Arena Towers,NL,Amsterdam Zuidoost,Hoogoorddreef 66 Zuidoost 1101 BE Amsterdam Netherlands,52.3096835,4.9422614
3384434229256,Good Hotel London,GB,London,Western Gateway Newham London E16 1FA United Kingdom,51.5084195,0.0253216
3393024163844,Renaissance Paris Republique Hotel Spa,FR,Paris,40 Rue Rene Boulanger 10th arr 75010 Paris France,48.8687804,2.3610196
3393024163851,Hotel Magna Pars Small Luxury Hotels of the World,IT,Milan,Via Forcella 6 Navigli 20144 Milan Italy,45.4524879,9.1669784
3401614098434,Rocco Forte Brown s Hotel,GB,London,33 Albemarle Street Mayfair Westminster Borough London W1S 4BP United Kingdom,51.5090558,-0.1421661
3401614098439,Hotel Spadari Al Duomo,IT,Milan,Via Spadari 11 Milan City Center 20123 Milan Italy,45.463579,9.1869092
3410204033028,Amba Hotel Marble Arch,GB,London,Bryanston Street Marble Arch Westminster Borough London W1H 7EH United Kingdom,51.5144004,-0.1565506
3418793967620,Hotel Am Konzerthaus Vienna MGallery by Sofitel,AT,Vienna,Am Heumarkt 35 37 03 Landstra e 1030 Vienna Austria,48.1996129,16.3773546
3418793967626,The College Hotel,NL,Amsterdam,Roelof Hartstraat 1 Oud Zuid 1071 VE Amsterdam Netherlands,52.3527675,4.88373
3427383902211,Hampshire Hotel Amsterdam American,NL,Amsterdam,Leidsekade 97 Amsterdam City Center 1017 PN Amsterdam Netherlands,52.363889,4.881302
